place_id,place_name,city_name,num_all,address,latitude,longitude,place_url,source_id,source_web_url
apag-parken-Aachen-Parkhaus-Adalbertsteinweg,Parkhaus Adalbertsteinweg,Aachen,605,"Parkhaus Adalbertsteinweg
Adalbertsteinweg 34
52070
Aachen",50.774352,6.099715,https://www.apag.de/parkobjekte/parkhaus-adalbertsteinweg,apag-parken,https://www.apag.de/
apag-parken-Aachen-Parkhaus-Adalbertstrasse,Parkhaus Adalbertstraße,Aachen,200,"Parkhaus Adalbertstraße
Blondelstraße
52062
Aachen",50.775886,6.090755,https://www.apag.de/parkobjekte/parkhaus-adalbertstra%C3%9Fe,apag-parken,https://www.apag.de/
apag-parken-Aachen-Parkhaus-Buchel,Parkhaus Büchel,Aachen,356,"Parkhaus Büchel
Büchel 39
52062
Aachen",50.775875,6.0865,https://www.apag.de/parkobjekte/parkhaus-b%C3%BCchel,apag-parken,https://www.apag.de/
apag-parken-Aachen-Parkhaus-Couvenstrasse,Parkhaus Couvenstraße,Aachen,526,"Parkhaus Couvenstraße
Couvenstraße 4
52062
Aachen",50.777325,6.089694,https://www.apag.de/parkobjekte/parkhaus-couvenstra%C3%9Fe,apag-parken,https://www.apag.de/
apag-parken-Aachen-Parkhaus-Eurogress,Parkhaus Eurogress,Aachen,600,"Parkhaus Eurogress
Monheimsallee 44
52062
Aachen",50.780654,6.09267,https://www.apag.de/parkobjekte/parkhaus-eurogress,apag-parken,https://www.apag.de/
apag-parken-Aachen-Parkhaus-Galeria-Kaufhof-City,Parkhaus Galeria Kaufhof/City,Aachen,999,"Parkhaus Galeria Kaufhof/City
Wirichsbongardstr. 47
52062
Aachen",50.772661,6.089889,https://www.apag.de/parkobjekte/parkhaus-galeria-kaufhofcity,apag-parken,https://www.apag.de/
apag-parken-Aachen-Parkhaus-Hauptbahnhof,Parkhaus Hauptbahnhof,Aachen,710,"Parkhaus Hauptbahnhof
Lagerhausstraße 20
52064
Aachen",50.767971,6.089309,https://www.apag.de/parkobjekte/parkhaus-hauptbahnhof,apag-parken,https://www.apag.de/
apag-parken-Aachen-Parkhaus-Luisenhospital,Parkhaus Luisenhospital,Aachen,355,"Parkhaus Luisenhospital
Weberstraße 2
52064
Aachen",50.767855,6.07804,https://www.apag.de/parkobjekte/parkhaus-luisenhospital,apag-parken,https://www.apag.de/
apag-parken-Aachen-Parkhaus-Rathaus,Parkhaus Rathaus,Aachen,316,"Parkhaus Rathaus
Mostardstraße 5
52062
Aachen",50.777266,6.084305,https://www.apag.de/parkobjekte/parkhaus-rathaus,apag-parken,https://www.apag.de/
apag-parken-Aachen-Parkhaus-Tivoli,Parkhaus Tivoli,Aachen,1240,"Parkhaus Tivoli
Krefelderstraße 205
52070
Aachen",50.794143,6.096725,https://www.apag.de/parkobjekte/parkhaus-tivoli,apag-parken,https://www.apag.de/
apag-parken-Aachen-Parkplatz-Ludwig-Forum,Parkplatz Ludwig Forum,Aachen,75,"Lombardenstraße 4
52070
Aachen",50.78184,6.101984,https://www.apag.de/parkobjekte/parkplatz-ludwig-forum,apag-parken,https://www.apag.de/
apag-parken-Aachen-Parkplatz-Luisenhospital,Parkplatz Luisenhospital,Aachen,72,"Parkplatz Luisenhospital
Boxgraben 99
52064
Aachen",50.767823,6.076306,https://www.apag.de/parkobjekte/parkplatz-luisenhospital,apag-parken,https://www.apag.de/
apag-parken-Aachen-Parkplatz-Pontstrasse,Parkplatz Pontstraße,Aachen,54,"Parkplatz Pontstraße
Wittekindstraße
52062
Aachen",50.781642,6.0797,https://www.apag.de/parkobjekte/parkplatz-pontstra%C3%9Fe,apag-parken,https://www.apag.de/
apag-parken-Aachen-Parkplatz-Uniklinik,Parkplatz Uniklinik,Aachen,,"Pauwelsstraße / Kullenhofstraße
52074
Aachen",50.774804,6.045195,https://www.apag.de/parkobjekte/parkplatz-uniklinik,apag-parken,https://www.apag.de/
apag-parken-Berlin-Parkhaus-East-Side-Mall,Parkhaus East Side Mall,Berlin,,"Parkhaus East Side Mall
Helen-Ernst-Straße
10243
Berlin",52.506379,13.448115,https://www.apag.de/parkobjekte/parkhaus-east-side-mall,apag-parken,https://www.apag.de/
apag-parken-Datteln-Parkdeck-StadtGalerie,Parkdeck StadtGalerie,Datteln,207,"Kolpingstraße
45711
Datteln",51.652461,7.341648,https://www.apag.de/parkobjekte/parkdeck-stadtgalerie,apag-parken,https://www.apag.de/
apag-parken-Datteln-Parkhaus-StadtGalerie,Parkhaus StadtGalerie,Datteln,76,"Martin-Luther-Straße
45711
Datteln",51.651775,7.341156,https://www.apag.de/parkobjekte/parkhaus-stadtgalerie,apag-parken,https://www.apag.de/
apag-parken-Dulmen-Parkhaus-Overbergplatz,Parkhaus Overbergplatz,Dülmen,160,"Overbergplatz 4
48249
Dülmen",51.8308145,7.275126,https://www.apag.de/parkobjekte/parkhaus-overbergplatz,apag-parken,https://www.apag.de/
baden-baden-parken-Festspielhaus,Festspielhaus,Baden-Baden,,,,,,baden-baden-parken,https://www.stadtwerke-baden-baden.de/
baden-baden-parken-Kongress,Kongress,Baden-Baden,,,,,,baden-baden-parken,https://www.stadtwerke-baden-baden.de/
baden-baden-parken-Vincentigarage,Vincentigarage,Baden-Baden,,,,,,baden-baden-parken,https://www.stadtwerke-baden-baden.de/
baden-baden-parken-Cineplex,Cineplex,Baden-Baden,,,,,,baden-baden-parken,https://www.stadtwerke-baden-baden.de/
baden-baden-parken-City-Garage,City Garage,Baden-Baden,,,,,,baden-baden-parken,https://www.stadtwerke-baden-baden.de/
baden-baden-parken-Kurhaus,Kurhaus,Baden-Baden,,,,,,baden-baden-parken,https://www.stadtwerke-baden-baden.de/
baden-baden-parken-Wagener-Galerie,Wagener Galerie,Baden-Baden,,,,,,baden-baden-parken,https://www.stadtwerke-baden-baden.de/
baden-baden-parken-Badergarage,Bädergarage,Baden-Baden,,,,,,baden-baden-parken,https://www.stadtwerke-baden-baden.de/
baden-baden-parken-Oos-Sud,Oos-Süd,Baden-Baden,,,,,,baden-baden-parken,https://www.stadtwerke-baden-baden.de/
baden-baden-parken-Oos-West,Oos-West,Baden-Baden,,,,,,baden-baden-parken,https://www.stadtwerke-baden-baden.de/
baden-baden-parken-Beethovenstrasse,Beethovenstraße,Baden-Baden,,,,,,baden-baden-parken,https://www.stadtwerke-baden-baden.de/
sw-bielefeld-parken-Tiefgarage-Kesselbrink,Tiefgarage Kesselbrink,Bielefeld,383,,,,,sw-bielefeld-parken,https://www.bielefeld.de/de/sv/verkehr/parken/park/
sw-bielefeld-parken-Parkhaus-Bahnhofsviertel-1,Parkhaus Bahnhofsviertel 1,Bielefeld,723,,,,,sw-bielefeld-parken,https://www.bielefeld.de/de/sv/verkehr/parken/park/
sw-bielefeld-parken-Parkhaus-Ritterstrasse,Parkhaus Ritterstraße,Bielefeld,456,,,,,sw-bielefeld-parken,https://www.bielefeld.de/de/sv/verkehr/parken/park/
sw-bielefeld-parken-Tiefgarage-und-Parkpalette-CineStar,Tiefgarage und Parkpalette CineStar,Bielefeld,400,,,,,sw-bielefeld-parken,https://www.bielefeld.de/de/sv/verkehr/parken/park/
sw-bielefeld-parken-Parkhaus-Centrum,Parkhaus Centrum,Bielefeld,325,,,,,sw-bielefeld-parken,https://www.bielefeld.de/de/sv/verkehr/parken/park/
sw-bielefeld-parken-Parkhaus-LOOM,Parkhaus LOOM,Bielefeld,529,,,,,sw-bielefeld-parken,https://www.bielefeld.de/de/sv/verkehr/parken/park/
sw-bielefeld-parken-Parkhaus-Am-Jahnplatz,Parkhaus Am Jahnplatz,Bielefeld,77,,,,,sw-bielefeld-parken,https://www.bielefeld.de/de/sv/verkehr/parken/park/
sw-bielefeld-parken-Parkhaus-Karstadt,Parkhaus Karstadt,Bielefeld,350,,,,,sw-bielefeld-parken,https://www.bielefeld.de/de/sv/verkehr/parken/park/
sw-bielefeld-parken-Parkhaus-Stadthalle,Parkhaus Stadthalle,Bielefeld,444,,,,,sw-bielefeld-parken,https://www.bielefeld.de/de/sv/verkehr/parken/park/
sw-bielefeld-parken-Tiefgarage-Neues-Rathaus,Tiefgarage Neues Rathaus,Bielefeld,475,,,,,sw-bielefeld-parken,https://www.bielefeld.de/de/sv/verkehr/parken/park/
sw-bielefeld-parken-Parkhaus-Am-Hauptbahnhof,Parkhaus Am Hauptbahnhof,Bielefeld,900,,,,,sw-bielefeld-parken,https://www.bielefeld.de/de/sv/verkehr/parken/park/
sw-bielefeld-parken-Tiefgarage-Altstadt-Carre,Tiefgarage Altstadt-Carré,Bielefeld,415,,,,,sw-bielefeld-parken,https://www.bielefeld.de/de/sv/verkehr/parken/park/
sw-bielefeld-parken-Parkplatz-Zentrum,Parkplatz Zentrum,Bielefeld,90,,,,,sw-bielefeld-parken,https://www.bielefeld.de/de/sv/verkehr/parken/park/
sw-bielefeld-parken-Parkhaus-Ankergarten,Parkhaus Ankergärten,Bielefeld,500,,,,,sw-bielefeld-parken,https://www.bielefeld.de/de/sv/verkehr/parken/park/
sw-bielefeld-parken-Tiefgarage-Marktpassage,Tiefgarage Marktpassage ,Bielefeld,154,,,,,sw-bielefeld-parken,https://www.bielefeld.de/de/sv/verkehr/parken/park/
sw-bielefeld-parken-Tiefgarage-Am-Theater,Tiefgarage Am Theater,Bielefeld,169,,,,,sw-bielefeld-parken,https://www.bielefeld.de/de/sv/verkehr/parken/park/
sw-bielefeld-parken-Tiefgarage-Willy-Brandt-Platz,Tiefgarage Willy-Brandt-Platz,Bielefeld,411,,,,,sw-bielefeld-parken,https://www.bielefeld.de/de/sv/verkehr/parken/park/
sw-bielefeld-parken-Tiefgarage-Welle,Tiefgarage Welle,Bielefeld,289,,,,,sw-bielefeld-parken,https://www.bielefeld.de/de/sv/verkehr/parken/park/
sw-bielefeld-parken-Parkplatz-Hbf,Parkplatz Hbf,Bielefeld,136,,,,,sw-bielefeld-parken,https://www.bielefeld.de/de/sv/verkehr/parken/park/
sw-bielefeld-parken-Parkhaus-Am-Zwinger,Parkhaus Am Zwinger,Bielefeld,412,,,,,sw-bielefeld-parken,https://www.bielefeld.de/de/sv/verkehr/parken/park/
sw-bielefeld-parken-Parkplatz-Grosse-Kurfursten-Str,Parkplatz Große-Kurfürsten-Str.,Bielefeld,164,,,,,sw-bielefeld-parken,https://www.bielefeld.de/de/sv/verkehr/parken/park/
sw-bielefeld-parken-Parkhaus-Bahnhofsviertel-2,Parkhaus Bahnhofsviertel 2,Bielefeld,189,,,,,sw-bielefeld-parken,https://www.bielefeld.de/de/sv/verkehr/parken/park/
sw-bielefeld-parken-Parkplatz-Friedenstrasse,Parkplatz Friedenstraße,Bielefeld,64,,,,,sw-bielefeld-parken,https://www.bielefeld.de/de/sv/verkehr/parken/park/
sw-bielefeld-parken-Parkplatz-Niederwall,Parkplatz Niederwall,Bielefeld,18,,,,,sw-bielefeld-parken,https://www.bielefeld.de/de/sv/verkehr/parken/park/
sw-bielefeld-parken-Parkplatz-Teutoburger-Strasse,Parkplatz Teutoburger Straße,Bielefeld,40,,,,,sw-bielefeld-parken,https://www.bielefeld.de/de/sv/verkehr/parken/park/
sw-bielefeld-parken-Parkplatze-Werner-Bock-Strasse,Parkplätze Werner-Bock-Straße,Bielefeld,126,,,,,sw-bielefeld-parken,https://www.bielefeld.de/de/sv/verkehr/parken/park/
sw-bielefeld-parken-Seidenstickerhalle,Seidenstickerhalle,Bielefeld,350,,,,,sw-bielefeld-parken,https://www.bielefeld.de/de/sv/verkehr/parken/park/
sw-bielefeld-parken-Parkpalette-Hermann-Delius-Strasse,Parkpalette Hermann-Delius-Straße,Bielefeld,433,,,,,sw-bielefeld-parken,https://www.bielefeld.de/de/sv/verkehr/parken/park/
sw-bielefeld-parken-Parkplatz-Kunsthalle,Parkplatz Kunsthalle,Bielefeld,27,,,,,sw-bielefeld-parken,https://www.bielefeld.de/de/sv/verkehr/parken/park/
sw-bielefeld-parken-Parkplatz-Herforder-Str,Parkplatz Herforder Str,Bielefeld,80,,,,,sw-bielefeld-parken,https://www.bielefeld.de/de/sv/verkehr/parken/park/
sw-bielefeld-parken-Parkplatz-Mercatorstr,Parkplatz Mercatorstr.,Bielefeld,44,,,,,sw-bielefeld-parken,https://www.bielefeld.de/de/sv/verkehr/parken/park/
parken-in-bochum-P1-Husemannplatz,P1 Husemannplatz,Bochum,,"P1 Husemannplatz
Viktoriastraße 23
44787 Bochum",,,https://www.parken-in-bochum.de/parkhaeuser/parkhaus/p1-husemannplatz/,parken-in-bochum,https://www.parken-in-bochum.de/
parken-in-bochum-P2-Dr-Ruer-Platz,P2 Dr.-Ruer-Platz,Bochum,,"P2 Dr.-Ruer-Platz
Luisenstraße 9
44787 Bochum",,,https://www.parken-in-bochum.de/parkhaeuser/parkhaus/p2-dr-ruer-platz/,parken-in-bochum,https://www.parken-in-bochum.de/
parken-in-bochum-PM-Massenbergstrasse,PM Massenbergstraße,Bochum,85,"PM Massenbergstraße
Massenbergstraße 15-17
44787 Bochum",,,https://www.parken-in-bochum.de/parkhaeuser/parkhaus/pm-massenbergstrasse/,parken-in-bochum,https://www.parken-in-bochum.de/
parken-in-bochum-PF-Bochumer-Fenster,PF Bochumer Fenster,Bochum,,"Bochumer Fenster
Massenbergstraße 9
44787 Bochum",,,https://www.parken-in-bochum.de/parkhaeuser/parkhaus/pf-bochumer-fenster/,parken-in-bochum,https://www.parken-in-bochum.de/
parken-in-bochum-P3-Rathaus-BVZ,P3 Rathaus (BVZ),Bochum,,,,,https://www.parken-in-bochum.de/parkhaeuser/parkhaus/p3-rathaus-bvz/,parken-in-bochum,https://www.parken-in-bochum.de/
parken-in-bochum-P5-Bruckstrasse,P5 Brückstraße,Bochum,,"P5 Brückstraße
Brückstraße 13
44787 Bochum",,,https://www.parken-in-bochum.de/parkhaeuser/parkhaus/p5-brueckstrasse/,parken-in-bochum,https://www.parken-in-bochum.de/
parken-in-bochum-P6-Hauptbahnhof-Buddenbergplatz,P6 Hauptbahnhof (Buddenbergplatz),Bochum,480,"P6 Hauptbahnhof (Buddenbergplatz)
Ferdinandstraße
44787 Bochum",,,https://www.parken-in-bochum.de/parkhaeuser/parkhaus/p6-hauptbahnhof-buddenbergplatz/,parken-in-bochum,https://www.parken-in-bochum.de/
parken-in-bochum-P8-Konrad-Adenauer-Platz,P8 Konrad-Adenauer-Platz,Bochum,543,"P8 Konrad-Adenauer-Platz
44787 Bochum",,,https://www.parken-in-bochum.de/parkhaeuser/parkhaus/p8-konrad-adenauer-platz/,parken-in-bochum,https://www.parken-in-bochum.de/
parken-in-bochum-P9-Schauspielhaus,P9 Schauspielhaus,Bochum,,"P9 Schauspielhaus
Hubertusstraße 2
44789 Bochum",,,https://www.parken-in-bochum.de/parkhaeuser/parkhaus/p9-schauspielhaus/,parken-in-bochum,https://www.parken-in-bochum.de/
parken-in-bochum-PH-Stadionring,PH Stadionring,Bochum,,"Stadionring 26
44791 Bochum",,,https://www.parken-in-bochum.de/parkhaeuser/parkhaus/ph-stadionring/,parken-in-bochum,https://www.parken-in-bochum.de/
parken-in-bochum-PH-Westpark-Jahrhunderthalle,PH Westpark / Jahrhunderthalle,Bochum,339,"An der Jahrhunderthalle
44793 Bochum",,,https://www.parken-in-bochum.de/parkhaeuser/parkhaus/ph-westpark-jahrhunderthalle/,parken-in-bochum,https://www.parken-in-bochum.de/
parken-in-bochum-P1-WAT-Alter-Markt-Wattenscheid,P1 WAT Alter Markt (Wattenscheid),Bochum,241,"An der Papenburg 9
44866 Bochum",,,https://www.parken-in-bochum.de/parkhaeuser/parkhaus/p1-wat-alter-markt-wattenscheid/,parken-in-bochum,https://www.parken-in-bochum.de/
bonn-bcp-parken-bahnhof,bahnhof,Bonn,114,,,,,bonn-bcp-parken,http://www.bcp-bonn.de/
bonn-bcp-parken-beethoven,beethoven,Bonn,416,,,,,bonn-bcp-parken,http://www.bcp-bonn.de/
bonn-bcp-parken-beetplatz,beetplatz,Bonn,200,,,,,bonn-bcp-parken,http://www.bcp-bonn.de/
bonn-bcp-parken-friedensplatz,friedensplatz,Bonn,810,,,,,bonn-bcp-parken,http://www.bcp-bonn.de/
bonn-bcp-parken-karstadt,karstadt,Bonn,99,,,,,bonn-bcp-parken,http://www.bcp-bonn.de/
bonn-bcp-parken-markt,markt,Bonn,305,,,,,bonn-bcp-parken,http://www.bcp-bonn.de/
bonn-bcp-parken-muensterplatz,muensterplatz,Bonn,312,,,,,bonn-bcp-parken,http://www.bcp-bonn.de/
bonn-bcp-parken-rheinaue,rheinaue,Bonn,240,,,,,bonn-bcp-parken,http://www.bcp-bonn.de/
bonn-bcp-parken-stadthaus,stadthaus,Bonn,320,,,,,bonn-bcp-parken,http://www.bcp-bonn.de/
bonn-bcp-parken-stadthaus-unten,stadthaus_unten,Bonn,360,,,,,bonn-bcp-parken,http://www.bcp-bonn.de/
braunschweig-parken-Parkhaus-Eiermarkt,Parkhaus Eiermarkt,Braunschweig,540,,52.261492,10.515398,,braunschweig-parken,http://www.braunschweig.de/plan/index.php#parken
braunschweig-parken-Parkhaus-Lange-Str-Nord,Parkhaus Lange Str. Nord,Braunschweig,,,52.266929,10.518574,,braunschweig-parken,http://www.braunschweig.de/plan/index.php#parken
braunschweig-parken-Parkhaus-Lange-Str-Sud,Parkhaus Lange Str. Süd,Braunschweig,152,,52.266286,10.518295,,braunschweig-parken,http://www.braunschweig.de/plan/index.php#parken
braunschweig-parken-Parkhaus-Magni,Parkhaus Magni,Braunschweig,420,,52.262162,10.526942,,braunschweig-parken,http://www.braunschweig.de/plan/index.php#parken
braunschweig-parken-Parkhaus-Packhof,Parkhaus Packhof,Braunschweig,1063,,52.265931,10.520441,,braunschweig-parken,http://www.braunschweig.de/plan/index.php#parken
braunschweig-parken-Parkhaus-Ring-Center,Parkhaus Ring-Center,Braunschweig,,,52.250696,10.535182,,braunschweig-parken,http://www.braunschweig.de/plan/index.php#parken
braunschweig-parken-Parkhaus-Schloss,Parkhaus Schloss,Braunschweig,1250,,52.264421,10.528515,,braunschweig-parken,http://www.braunschweig.de/plan/index.php#parken
braunschweig-parken-Parkhaus-Schutzenstrasse,Parkhaus Schützenstraße,Braunschweig,366,,52.263712,10.519732,,braunschweig-parken,http://www.braunschweig.de/plan/index.php#parken
braunschweig-parken-Parkhaus-Stadthalle,Parkhaus Stadthalle,Braunschweig,,,52.258603,10.539667,,braunschweig-parken,http://www.braunschweig.de/plan/index.php#parken
braunschweig-parken-Parkhaus-Steinstrasse,Parkhaus Steinstraße,Braunschweig,,,52.261119,10.517471,,braunschweig-parken,http://www.braunschweig.de/plan/index.php#parken
braunschweig-parken-Parkhaus-Wallstrasse,Parkhaus Wallstraße,Braunschweig,485,,52.259903,10.521428,,braunschweig-parken,http://www.braunschweig.de/plan/index.php#parken
braunschweig-parken-Parkhaus-Wilhelmstrasse,Parkhaus Wilhelmstraße,Braunschweig,536,,52.266627,10.528208,,braunschweig-parken,http://www.braunschweig.de/plan/index.php#parken
vmz-bremen-parken-Parkhaus-Am-Bahnhof,Parkhaus Am Bahnhof,Bremen,260,,53.080483487307,8.8141222327009,https://vmz.bremen.de/parken/parkhaeuser-parkplaetze?tx_nnpois_poilist%5Baction%5D=show&tx_nnpois_poilist%5Bcontroller%5D=Poi&tx_nnpois_poilist%5Bpoi%5D=32&type=312&cHash=ff4c0dddd04b5995cbc94408bb280c35,vmz-bremen-parken,https://vmz.bremen.de/parken/parkhaeuser-parkplaetze/
vmz-bremen-parken-Parkhaus-Am-Brill,Parkhaus Am Brill,Bremen,648,,53.079332965864,8.8027414972581,https://vmz.bremen.de/parken/parkhaeuser-parkplaetze?tx_nnpois_poilist%5Baction%5D=show&tx_nnpois_poilist%5Bcontroller%5D=Poi&tx_nnpois_poilist%5Bpoi%5D=25&type=312&cHash=03bd5b890b7b7d2eb21608dfe4257c6b,vmz-bremen-parken,https://vmz.bremen.de/parken/parkhaeuser-parkplaetze/
vmz-bremen-parken-Parkhaus-Am-Dom,Parkhaus Am Dom,Bremen,297,,53.075410204304,8.8107421142551,https://vmz.bremen.de/parken/parkhaeuser-parkplaetze?tx_nnpois_poilist%5Baction%5D=show&tx_nnpois_poilist%5Bcontroller%5D=Poi&tx_nnpois_poilist%5Bpoi%5D=28&type=312&cHash=765612f6c4c8c536b25bd90d2a271d68,vmz-bremen-parken,https://vmz.bremen.de/parken/parkhaeuser-parkplaetze/
vmz-bremen-parken-Parkplatz-Am-Kuhhirten,Parkplatz Am Kuhhirten,Bremen,,,53.063950481313,8.820473447897,https://vmz.bremen.de/parken/parkhaeuser-parkplaetze?tx_nnpois_poilist%5Baction%5D=show&tx_nnpois_poilist%5Bcontroller%5D=Poi&tx_nnpois_poilist%5Bpoi%5D=50&type=312&cHash=559a90823be56643b9a629bdf7f61606,vmz-bremen-parken,https://vmz.bremen.de/parken/parkhaeuser-parkplaetze/
vmz-bremen-parken-Parkhaus-Am-Sedanplatz,Parkhaus Am Sedanplatz,Bremen,170,,53.173215634822,8.6180972556973,https://vmz.bremen.de/parken/parkhaeuser-parkplaetze?tx_nnpois_poilist%5Baction%5D=show&tx_nnpois_poilist%5Bcontroller%5D=Poi&tx_nnpois_poilist%5Bpoi%5D=45&type=312&cHash=ad50dae9c40f08a9895909ed714bc988,vmz-bremen-parken,https://vmz.bremen.de/parken/parkhaeuser-parkplaetze/
vmz-bremen-parken-Parkhaus-Am-Vegesacker-Hafen,Parkhaus Am Vegesacker Hafen,Bremen,,,53.169736384242,8.6260236920057,https://vmz.bremen.de/parken/parkhaeuser-parkplaetze?tx_nnpois_poilist%5Baction%5D=show&tx_nnpois_poilist%5Bcontroller%5D=Poi&tx_nnpois_poilist%5Bpoi%5D=44&type=312&cHash=a8ece562f2bc0e03ded9dbd202ad23e6,vmz-bremen-parken,https://vmz.bremen.de/parken/parkhaeuser-parkplaetze/
vmz-bremen-parken-Parkhaus-Am-Wall,Parkhaus Am Wall,Bremen,300,,53.081349517746,8.8050154931362,https://vmz.bremen.de/parken/parkhaeuser-parkplaetze?tx_nnpois_poilist%5Baction%5D=show&tx_nnpois_poilist%5Bcontroller%5D=Poi&tx_nnpois_poilist%5Bpoi%5D=30&type=312&cHash=5f381d5ee7c97638a05d648b6c803142,vmz-bremen-parken,https://vmz.bremen.de/parken/parkhaeuser-parkplaetze/
vmz-bremen-parken-Parkhaus-Aumunder-Markplatz,Parkhaus Aumunder Markplatz,Bremen,263,,53.176904854587,8.6196947148114,https://vmz.bremen.de/parken/parkhaeuser-parkplaetze?tx_nnpois_poilist%5Baction%5D=show&tx_nnpois_poilist%5Bcontroller%5D=Poi&tx_nnpois_poilist%5Bpoi%5D=47&type=312&cHash=dc822e5e2629b23060916ac4bd42e80b,vmz-bremen-parken,https://vmz.bremen.de/parken/parkhaeuser-parkplaetze/
vmz-bremen-parken-Parkplatz-Beckersweide,Parkplatz Beckersweide,Bremen,,,53.170989229059,8.7040881415985,https://vmz.bremen.de/parken/parkhaeuser-parkplaetze?tx_nnpois_poilist%5Baction%5D=show&tx_nnpois_poilist%5Bcontroller%5D=Poi&tx_nnpois_poilist%5Bpoi%5D=51&type=312&cHash=b9e02640967249bd11b148b2eb1ec8b2,vmz-bremen-parken,https://vmz.bremen.de/parken/parkhaeuser-parkplaetze/
vmz-bremen-parken-Parkplatz-Burgerweide,Parkplatz Bürgerweide,Bremen,2200,,53.087346760076,8.8129583607857,https://vmz.bremen.de/parken/parkhaeuser-parkplaetze?tx_nnpois_poilist%5Baction%5D=show&tx_nnpois_poilist%5Bcontroller%5D=Poi&tx_nnpois_poilist%5Bpoi%5D=36&type=312&cHash=a01bedad1f29a717641e99e0bf5f3f8e,vmz-bremen-parken,https://vmz.bremen.de/parken/parkhaeuser-parkplaetze/
vmz-bremen-parken-Parkplatz-Burgerweide-Klangbogen,Parkplatz Bürgerweide/Klangbogen,Bremen,,,53.084960718465,8.8156252146631,https://vmz.bremen.de/parken/parkhaeuser-parkplaetze?tx_nnpois_poilist%5Baction%5D=show&tx_nnpois_poilist%5Bcontroller%5D=Poi&tx_nnpois_poilist%5Bpoi%5D=43&type=312&cHash=81ed91ca5d0832ffdb0a8364cce1aea3,vmz-bremen-parken,https://vmz.bremen.de/parken/parkhaeuser-parkplaetze/
vmz-bremen-parken-Parkhaus-City-Gate,Parkhaus City Gate,Bremen,238,,8.81224520479726,53.08145704474542,https://vmz.bremen.de/parken/parkhaeuser-parkplaetze?tx_nnpois_poilist%5Baction%5D=show&tx_nnpois_poilist%5Bcontroller%5D=Poi&tx_nnpois_poilist%5Bpoi%5D=14601&type=312&cHash=0463508ea316bbe49386496c329bde82,vmz-bremen-parken,https://vmz.bremen.de/parken/parkhaeuser-parkplaetze/
vmz-bremen-parken-Parkplatz-Fresenbergstrasse-P1,Parkplatz Fresenbergstraße P1,Bremen,,,53.183874738749,8.5736951639165,https://vmz.bremen.de/parken/parkhaeuser-parkplaetze?tx_nnpois_poilist%5Baction%5D=show&tx_nnpois_poilist%5Bcontroller%5D=Poi&tx_nnpois_poilist%5Bpoi%5D=55&type=312&cHash=9896bcd0d16eeb1625052f9799bd693d,vmz-bremen-parken,https://vmz.bremen.de/parken/parkhaeuser-parkplaetze/
vmz-bremen-parken-Parkplatz-Fresenbergstrasse-P2,Parkplatz Fresenbergstraße P2,Bremen,,,53.183768872646,8.5717366387897,https://vmz.bremen.de/parken/parkhaeuser-parkplaetze?tx_nnpois_poilist%5Baction%5D=show&tx_nnpois_poilist%5Bcontroller%5D=Poi&tx_nnpois_poilist%5Bpoi%5D=54&type=312&cHash=a92a7677895d70344db5aadfda5f179d,vmz-bremen-parken,https://vmz.bremen.de/parken/parkhaeuser-parkplaetze/
vmz-bremen-parken-Parkhaus-Haven-Hoovt,Parkhaus Haven Höövt,Bremen,,,53.167474877807,8.6269405271867,https://vmz.bremen.de/parken/parkhaeuser-parkplaetze?tx_nnpois_poilist%5Baction%5D=show&tx_nnpois_poilist%5Bcontroller%5D=Poi&tx_nnpois_poilist%5Bpoi%5D=46&type=312&cHash=0e38901e7dbbe1f30d748b35aa5f255a,vmz-bremen-parken,https://vmz.bremen.de/parken/parkhaeuser-parkplaetze/
vmz-bremen-parken-Parkhaus-Herdentor-Rembertiring,Parkhaus Herdentor/Rembertiring,Bremen,,,53.079979145386,8.8133932030189,https://vmz.bremen.de/parken/parkhaeuser-parkplaetze?tx_nnpois_poilist%5Baction%5D=show&tx_nnpois_poilist%5Bcontroller%5D=Poi&tx_nnpois_poilist%5Bpoi%5D=33&type=312&cHash=70a8b78ebbc56112117558071f8b855d,vmz-bremen-parken,https://vmz.bremen.de/parken/parkhaeuser-parkplaetze/
vmz-bremen-parken-Parkhaus-Hillmannplatz,Parkhaus Hillmannplatz,Bremen,346,,53.08131217396,8.8097014692433,https://vmz.bremen.de/parken/parkhaeuser-parkplaetze?tx_nnpois_poilist%5Baction%5D=show&tx_nnpois_poilist%5Bcontroller%5D=Poi&tx_nnpois_poilist%5Bpoi%5D=31&type=312&cHash=1e7f3ed5172cf6dd49f862aee4cbf57b,vmz-bremen-parken,https://vmz.bremen.de/parken/parkhaeuser-parkplaetze/
vmz-bremen-parken-Parkhaus-Hollerallee,Parkhaus Hollerallee,Bremen,,,53.088141458547,8.8154922186983,https://vmz.bremen.de/parken/parkhaeuser-parkplaetze?tx_nnpois_poilist%5Baction%5D=show&tx_nnpois_poilist%5Bcontroller%5D=Poi&tx_nnpois_poilist%5Bpoi%5D=35&type=312&cHash=05824a0833df0dda8e20ad68a367cfb5,vmz-bremen-parken,https://vmz.bremen.de/parken/parkhaeuser-parkplaetze/
vmz-bremen-parken-Parkplatz-Im-Pohl,Parkplatz Im Pohl,Bremen,,,53.168234603223,8.6949707320952,https://vmz.bremen.de/parken/parkhaeuser-parkplaetze?tx_nnpois_poilist%5Baction%5D=show&tx_nnpois_poilist%5Bcontroller%5D=Poi&tx_nnpois_poilist%5Bpoi%5D=56&type=312&cHash=6c092065d10a6623751b897570a12985,vmz-bremen-parken,https://vmz.bremen.de/parken/parkhaeuser-parkplaetze/
vmz-bremen-parken-Parkhaus-Katharinenklosterhof,Parkhaus Katharinenklosterhof,Bremen,276,,53.077590119168,8.8084793833409,https://vmz.bremen.de/parken/parkhaeuser-parkplaetze?tx_nnpois_poilist%5Baction%5D=show&tx_nnpois_poilist%5Bcontroller%5D=Poi&tx_nnpois_poilist%5Bpoi%5D=27&type=312&cHash=c2f678816e4197b15657fb1512898c2a,vmz-bremen-parken,https://vmz.bremen.de/parken/parkhaeuser-parkplaetze/
vmz-bremen-parken-Parkplatz-Kunstlerhaus-Guterbahnhof,Parkplatz Künstlerhaus Güterbahnhof,Bremen,,,53.086337610317,8.8056347124431,https://vmz.bremen.de/parken/parkhaeuser-parkplaetze?tx_nnpois_poilist%5Baction%5D=show&tx_nnpois_poilist%5Bcontroller%5D=Poi&tx_nnpois_poilist%5Bpoi%5D=61&type=312&cHash=5bb53449cbf5ba1e27984867faa09bef,vmz-bremen-parken,https://vmz.bremen.de/parken/parkhaeuser-parkplaetze/
vmz-bremen-parken-Parkplatz-Lubecker-Strasse,Parkplatz Lübecker Straße,Bremen,,,53.070497489181,8.830263062447,https://vmz.bremen.de/parken/parkhaeuser-parkplaetze?tx_nnpois_poilist%5Baction%5D=show&tx_nnpois_poilist%5Bcontroller%5D=Poi&tx_nnpois_poilist%5Bpoi%5D=57&type=312&cHash=6f8a323c8b9b76e7c256c61664a47ca6,vmz-bremen-parken,https://vmz.bremen.de/parken/parkhaeuser-parkplaetze/
vmz-bremen-parken-Parkhaus-Mitte,Parkhaus Mitte,Bremen,883,,53.077667585805,8.8063750808364,https://vmz.bremen.de/parken/parkhaeuser-parkplaetze?tx_nnpois_poilist%5Baction%5D=show&tx_nnpois_poilist%5Bcontroller%5D=Poi&tx_nnpois_poilist%5Bpoi%5D=24&type=312&cHash=480939a4da64047ac394a5f5a386f38d,vmz-bremen-parken,https://vmz.bremen.de/parken/parkhaeuser-parkplaetze/
vmz-bremen-parken-Parkplatz-Ortsamt-Blumenthal,Parkplatz Ortsamt Blumenthal,Bremen,,,53.181053937922,8.5738876677242,https://vmz.bremen.de/parken/parkhaeuser-parkplaetze?tx_nnpois_poilist%5Baction%5D=show&tx_nnpois_poilist%5Bcontroller%5D=Poi&tx_nnpois_poilist%5Bpoi%5D=58&type=312&cHash=c7d0d9223af533d810044e883b1716b3,vmz-bremen-parken,https://vmz.bremen.de/parken/parkhaeuser-parkplaetze/
vmz-bremen-parken-Parkhaus-Ostertor-Kulturmeile,Parkhaus Ostertor/Kulturmeile,Bremen,185,,53.070448085602,8.8151948708034,https://vmz.bremen.de/parken/parkhaeuser-parkplaetze?tx_nnpois_poilist%5Baction%5D=show&tx_nnpois_poilist%5Bcontroller%5D=Poi&tx_nnpois_poilist%5Bpoi%5D=29&type=312&cHash=adcc9bfdcab8bd98917217bddab23fcc,vmz-bremen-parken,https://vmz.bremen.de/parken/parkhaeuser-parkplaetze/
vmz-bremen-parken-Parkhaus-Pressehaus,Parkhaus Pressehaus,Bremen,549,,53.076703510498,8.8047828204615,https://vmz.bremen.de/parken/parkhaeuser-parkplaetze?tx_nnpois_poilist%5Baction%5D=show&tx_nnpois_poilist%5Bcontroller%5D=Poi&tx_nnpois_poilist%5Bpoi%5D=26&type=312&cHash=93c06a54ac8b71b3908a9beddb016006,vmz-bremen-parken,https://vmz.bremen.de/parken/parkhaeuser-parkplaetze/
vmz-bremen-parken-Parkhaus-Rovekamp-Musicalth,Parkhaus Rövekamp/Musicalth.,Bremen,234,,53.078641190996,8.8139809474968,https://vmz.bremen.de/parken/parkhaeuser-parkplaetze?tx_nnpois_poilist%5Baction%5D=show&tx_nnpois_poilist%5Bcontroller%5D=Poi&tx_nnpois_poilist%5Bpoi%5D=34&type=312&cHash=537542acf6f93b812fe208a085afa1e2,vmz-bremen-parken,https://vmz.bremen.de/parken/parkhaeuser-parkplaetze/
vmz-bremen-parken-Parkplatz-Sagerstr,Parkplatz Sagerstr.,Bremen,21,,53.170972182485,8.6218407501442,https://vmz.bremen.de/parken/parkhaeuser-parkplaetze?tx_nnpois_poilist%5Baction%5D=show&tx_nnpois_poilist%5Bcontroller%5D=Poi&tx_nnpois_poilist%5Bpoi%5D=48&type=312&cHash=84dcce98121fd562f0cc678da8033eb3,vmz-bremen-parken,https://vmz.bremen.de/parken/parkhaeuser-parkplaetze/
vmz-bremen-parken-Parkplatz-Silbermannstrasse,Parkplatz Silbermannstraße,Bremen,,,53.097276688349,8.7629198107552,https://vmz.bremen.de/parken/parkhaeuser-parkplaetze?tx_nnpois_poilist%5Baction%5D=show&tx_nnpois_poilist%5Bcontroller%5D=Poi&tx_nnpois_poilist%5Bpoi%5D=62&type=312&cHash=bcd1742cb5b82dbc4dc28f2bc7de59b2,vmz-bremen-parken,https://vmz.bremen.de/parken/parkhaeuser-parkplaetze/
vmz-bremen-parken-Parkhaus-Stephani,Parkhaus Stephani,Bremen,291,,53.081730825862,8.7966120649582,https://vmz.bremen.de/parken/parkhaeuser-parkplaetze?tx_nnpois_poilist%5Baction%5D=show&tx_nnpois_poilist%5Bcontroller%5D=Poi&tx_nnpois_poilist%5Bpoi%5D=42&type=312&cHash=94d4924ed866f82cbe32749a30d456df,vmz-bremen-parken,https://vmz.bremen.de/parken/parkhaeuser-parkplaetze/
vmz-bremen-parken-Parkplatz-Weserstadion,Parkplatz Weserstadion,Bremen,,,53.065802457355,8.8400077864603,https://vmz.bremen.de/parken/parkhaeuser-parkplaetze?tx_nnpois_poilist%5Baction%5D=show&tx_nnpois_poilist%5Bcontroller%5D=Poi&tx_nnpois_poilist%5Bpoi%5D=59&type=312&cHash=cd6ba8acf980f654e6a7193fbdad5dfc,vmz-bremen-parken,https://vmz.bremen.de/parken/parkhaeuser-parkplaetze/
vmz-bremen-parken-Parkplatz-Uberseestadt,Parkplatz Überseestadt,Bremen,,,53.090769883477,8.7762548492468,https://vmz.bremen.de/parken/parkhaeuser-parkplaetze?tx_nnpois_poilist%5Baction%5D=show&tx_nnpois_poilist%5Bcontroller%5D=Poi&tx_nnpois_poilist%5Bpoi%5D=60&type=312&cHash=8e0d510afe6fc5fbc619bf219ccd4c82,vmz-bremen-parken,https://vmz.bremen.de/parken/parkhaeuser-parkplaetze/
digistadt-dortmund-parken-Dietr-Keuning-Haus,Dietr.-Keuning-Haus,Dortmund,90,,,,,digistadt-dortmund-parken,https://geoweb1.digistadtdo.de/OWSServiceProxy/client/parken.jsp
digistadt-dortmund-parken-Cinestar,Cinestar,Dortmund,,,,,,digistadt-dortmund-parken,https://geoweb1.digistadtdo.de/OWSServiceProxy/client/parken.jsp
digistadt-dortmund-parken-Alte-Post,Alte Post,Dortmund,89,,,,,digistadt-dortmund-parken,https://geoweb1.digistadtdo.de/OWSServiceProxy/client/parken.jsp
digistadt-dortmund-parken-Konzerthaus-Burgwall,Konzerthaus/Burgwall,Dortmund,274,,,,,digistadt-dortmund-parken,https://geoweb1.digistadtdo.de/OWSServiceProxy/client/parken.jsp
digistadt-dortmund-parken-Hauptbahnhof,Hauptbahnhof,Dortmund,536,,,,,digistadt-dortmund-parken,https://geoweb1.digistadtdo.de/OWSServiceProxy/client/parken.jsp
digistadt-dortmund-parken-Freistuhl-Bibliothek,Freistuhl/Bibliothek,Dortmund,300,,,,,digistadt-dortmund-parken,https://geoweb1.digistadtdo.de/OWSServiceProxy/client/parken.jsp
digistadt-dortmund-parken-Kuckelke,Kuckelke,Dortmund,362,,,,,digistadt-dortmund-parken,https://geoweb1.digistadtdo.de/OWSServiceProxy/client/parken.jsp
digistadt-dortmund-parken-Bissenkamp,Bissenkamp,Dortmund,127,,,,,digistadt-dortmund-parken,https://geoweb1.digistadtdo.de/OWSServiceProxy/client/parken.jsp
digistadt-dortmund-parken-Commerzbank,Commerzbank,Dortmund,,,,,,digistadt-dortmund-parken,https://geoweb1.digistadtdo.de/OWSServiceProxy/client/parken.jsp
digistadt-dortmund-parken-Dortmunder-U,Dortmunder U,Dortmund,467,,,,,digistadt-dortmund-parken,https://geoweb1.digistadtdo.de/OWSServiceProxy/client/parken.jsp
digistadt-dortmund-parken-Westentor,Westentor,Dortmund,,,,,,digistadt-dortmund-parken,https://geoweb1.digistadtdo.de/OWSServiceProxy/client/parken.jsp
digistadt-dortmund-parken-Kaufhof,Kaufhof,Dortmund,120,,,,,digistadt-dortmund-parken,https://geoweb1.digistadtdo.de/OWSServiceProxy/client/parken.jsp
digistadt-dortmund-parken-Hansaplatz-Karstadt,Hansaplatz/Karstadt,Dortmund,580,,,,,digistadt-dortmund-parken,https://geoweb1.digistadtdo.de/OWSServiceProxy/client/parken.jsp
digistadt-dortmund-parken-Thier-Galerie,Thier-Galerie,Dortmund,724,,,,,digistadt-dortmund-parken,https://geoweb1.digistadtdo.de/OWSServiceProxy/client/parken.jsp
digistadt-dortmund-parken-Theater,Theater,Dortmund,393,,,,,digistadt-dortmund-parken,https://geoweb1.digistadtdo.de/OWSServiceProxy/client/parken.jsp
digistadt-dortmund-parken-Rathaus-Stadtgarten,Rathaus/Stadtgarten,Dortmund,584,,,,,digistadt-dortmund-parken,https://geoweb1.digistadtdo.de/OWSServiceProxy/client/parken.jsp
digistadt-dortmund-parken-Friedensplatz,Friedensplatz,Dortmund,448,,,,,digistadt-dortmund-parken,https://geoweb1.digistadtdo.de/OWSServiceProxy/client/parken.jsp
digistadt-dortmund-parken-HDI-Sudbad,HDI/Südbad,Dortmund,,,,,,digistadt-dortmund-parken,https://geoweb1.digistadtdo.de/OWSServiceProxy/client/parken.jsp
digistadt-dortmund-parken-Klinikum-DO,Klinikum DO,Dortmund,,,,,,digistadt-dortmund-parken,https://geoweb1.digistadtdo.de/OWSServiceProxy/client/parken.jsp
dresden-parken-Altmarkt,Altmarkt,Dresden,400,"Altmarkt 1
01067 Dresden",51.0506700789,13.741789104,https://www.dresden.de/apps_ext/ParkplatzApp/index?0-1.ILinkListener-areaContainer-0-listPark-responsiveTable-responsiveTableContainer-listDataRows-0-listData-1-dataContent-lnk,dresden-parken,https://www.dresden.de/freie-parkplaetze
dresden-parken-An-der-Frauenkirche,An der Frauenkirche,Dresden,120,"An der Frauenkirche 12a
01067 Dresden",51.051415072,13.7441934672,https://www.dresden.de/apps_ext/ParkplatzApp/index?0-1.ILinkListener-areaContainer-0-listPark-responsiveTable-responsiveTableContainer-listDataRows-1-listData-1-dataContent-lnk,dresden-parken,https://www.dresden.de/freie-parkplaetze
dresden-parken-Frauenkirche-Neumarkt,Frauenkirche / Neumarkt,Dresden,250,"Landhausstraße 2
01067 Dresden",51.0590019661,13.7308651039,https://www.dresden.de/apps_ext/ParkplatzApp/index?0-1.ILinkListener-areaContainer-0-listPark-responsiveTable-responsiveTableContainer-listDataRows-2-listData-1-dataContent-lnk,dresden-parken,https://www.dresden.de/freie-parkplaetze
dresden-parken-Haus-am-Zwinger,Haus am Zwinger,Dresden,171,"Kleine Brüdergasse 3
01067 Dresden",51.0514142863,13.7357788973,https://www.dresden.de/apps_ext/ParkplatzApp/index?0-1.ILinkListener-areaContainer-0-listPark-responsiveTable-responsiveTableContainer-listDataRows-3-listData-1-dataContent-lnk,dresden-parken,https://www.dresden.de/freie-parkplaetze
dresden-parken-Ostra-Allee,Ostra-Allee,Dresden,90,"Ostra-Allee
01067 Dresden",,,https://www.dresden.de/apps_ext/ParkplatzApp/index?0-1.ILinkListener-areaContainer-0-listPark-responsiveTable-responsiveTableContainer-listDataRows-4-listData-1-dataContent-lnk,dresden-parken,https://www.dresden.de/freie-parkplaetze
dresden-parken-Schiessgasse,Schießgasse,Dresden,212,"Schießgasse
01067 Dresden",51.0504295976,13.7445053432,https://www.dresden.de/apps_ext/ParkplatzApp/index?0-1.ILinkListener-areaContainer-0-listPark-responsiveTable-responsiveTableContainer-listDataRows-5-listData-1-dataContent-lnk,dresden-parken,https://www.dresden.de/freie-parkplaetze
dresden-parken-Semperoper,Semperoper,Dresden,400,"Devrientstraße
01067 Dresden",51.0554397704,13.7339577336,https://www.dresden.de/apps_ext/ParkplatzApp/index?0-1.ILinkListener-areaContainer-0-listPark-responsiveTable-responsiveTableContainer-listDataRows-6-listData-1-dataContent-lnk,dresden-parken,https://www.dresden.de/freie-parkplaetze
dresden-parken-Taschenbergpalais,Taschenbergpalais,Dresden,98,"Kleine Brüdergasse 3
01067 Dresden",51.0517691273,13.7353413756,https://www.dresden.de/apps_ext/ParkplatzApp/index?0-1.ILinkListener-areaContainer-0-listPark-responsiveTable-responsiveTableContainer-listDataRows-7-listData-1-dataContent-lnk,dresden-parken,https://www.dresden.de/freie-parkplaetze
dresden-parken-Freiberger-Platz,Freiberger Platz,Dresden,110,"Freiberger Platz
01067 Dresden",,,https://www.dresden.de/apps_ext/ParkplatzApp/index?0-1.ILinkListener-areaContainer-1-listPark-responsiveTable-responsiveTableContainer-listDataRows-0-listData-1-dataContent-lnk,dresden-parken,https://www.dresden.de/freie-parkplaetze
dresden-parken-Kongresszentrum,Kongresszentrum,Dresden,250,"Ostra-Ufer 2
01067 Dresden",51.0419707134,13.731187746,https://www.dresden.de/apps_ext/ParkplatzApp/index?0-1.ILinkListener-areaContainer-1-listPark-responsiveTable-responsiveTableContainer-listDataRows-1-listData-1-dataContent-lnk,dresden-parken,https://www.dresden.de/freie-parkplaetze
dresden-parken-Kraftwerk-Mitte,Kraftwerk Mitte,Dresden,315,"Löbtauer Straße 21
01159 Dresden",,,https://www.dresden.de/apps_ext/ParkplatzApp/index?0-1.ILinkListener-areaContainer-1-listPark-responsiveTable-responsiveTableContainer-listDataRows-2-listData-1-dataContent-lnk,dresden-parken,https://www.dresden.de/freie-parkplaetze
dresden-parken-Ostra-Ufer,Ostra-Ufer,Dresden,141,"Ostra-Ufer
01067 Dresden",,,https://www.dresden.de/apps_ext/ParkplatzApp/index?0-1.ILinkListener-areaContainer-1-listPark-responsiveTable-responsiveTableContainer-listDataRows-3-listData-1-dataContent-lnk,dresden-parken,https://www.dresden.de/freie-parkplaetze
dresden-parken-Parkhaus-Mitte,Parkhaus Mitte,Dresden,280,"Magdeburger Str. 1
01067 Dresden",51.0581412221,13.726110154,https://www.dresden.de/apps_ext/ParkplatzApp/index?0-1.ILinkListener-areaContainer-1-listPark-responsiveTable-responsiveTableContainer-listDataRows-4-listData-1-dataContent-lnk,dresden-parken,https://www.dresden.de/freie-parkplaetze
dresden-parken-World-Trade-Center,World Trade Center,Dresden,220,"Ammonstraße 70
01067 Dresden",51.0493736241,13.721715643,https://www.dresden.de/apps_ext/ParkplatzApp/index?0-1.ILinkListener-areaContainer-1-listPark-responsiveTable-responsiveTableContainer-listDataRows-5-listData-1-dataContent-lnk,dresden-parken,https://www.dresden.de/freie-parkplaetze
dresden-parken-Altmarkt-Galerie,Altmarkt - Galerie,Dresden,480,"Webergasse 1
01067 Dresden",51.0467643184,13.7378780267,https://www.dresden.de/apps_ext/ParkplatzApp/index?0-1.ILinkListener-areaContainer-2-listPark-responsiveTable-responsiveTableContainer-listDataRows-0-listData-1-dataContent-lnk,dresden-parken,https://www.dresden.de/freie-parkplaetze
dresden-parken-Budapester-Strasse,Budapester Straße,Dresden,127,"Budapester Straße
01069 Dresden",,,https://www.dresden.de/apps_ext/ParkplatzApp/index?0-1.ILinkListener-areaContainer-2-listPark-responsiveTable-responsiveTableContainer-listDataRows-1-listData-1-dataContent-lnk,dresden-parken,https://www.dresden.de/freie-parkplaetze
dresden-parken-Centrum-Galerie,Centrum - Galerie,Dresden,1059,"Trompeterstraße 5
01069 Dresden",51.0453716211,13.7339469054,https://www.dresden.de/apps_ext/ParkplatzApp/index?0-1.ILinkListener-areaContainer-2-listPark-responsiveTable-responsiveTableContainer-listDataRows-2-listData-1-dataContent-lnk,dresden-parken,https://www.dresden.de/freie-parkplaetze
dresden-parken-Ferdinandplatz,Ferdinandplatz,Dresden,210,"Ferdinandplatz 1
01069 Dresden",51.0458825653,13.7396371112,https://www.dresden.de/apps_ext/ParkplatzApp/index?0-1.ILinkListener-areaContainer-2-listPark-responsiveTable-responsiveTableContainer-listDataRows-3-listData-1-dataContent-lnk,dresden-parken,https://www.dresden.de/freie-parkplaetze
dresden-parken-Karstadt,Karstadt,Dresden,265,"Prager Straße 12
01069 Dresden",51.0467643184,13.7380445253,https://www.dresden.de/apps_ext/ParkplatzApp/index?0-1.ILinkListener-areaContainer-2-listPark-responsiveTable-responsiveTableContainer-listDataRows-4-listData-1-dataContent-lnk,dresden-parken,https://www.dresden.de/freie-parkplaetze
dresden-parken-Reitbahnstrasse,Reitbahnstraße,Dresden,285,"Reitbahnstraße
01069 Dresden",51.0435681109,13.733425664,https://www.dresden.de/apps_ext/ParkplatzApp/index?0-1.ILinkListener-areaContainer-2-listPark-responsiveTable-responsiveTableContainer-listDataRows-5-listData-1-dataContent-lnk,dresden-parken,https://www.dresden.de/freie-parkplaetze
dresden-parken-Wiener-Platz-Hauptbahnhof,Wiener Platz / Hauptbahnhof,Dresden,350,"Wiener Platz
01069 Dresden",,,https://www.dresden.de/apps_ext/ParkplatzApp/index?0-1.ILinkListener-areaContainer-2-listPark-responsiveTable-responsiveTableContainer-listDataRows-6-listData-1-dataContent-lnk,dresden-parken,https://www.dresden.de/freie-parkplaetze
dresden-parken-Wohrl-Florentinum,Wöhrl / Florentinum,Dresden,264,"Prager Straße 8 - 10
01069 Dresden",51.0445161087,13.7379629908,https://www.dresden.de/apps_ext/ParkplatzApp/index?0-1.ILinkListener-areaContainer-2-listPark-responsiveTable-responsiveTableContainer-listDataRows-7-listData-1-dataContent-lnk,dresden-parken,https://www.dresden.de/freie-parkplaetze
dresden-parken-City-Center,City Center,Dresden,120,"Friedrich-List-Platz 2
01069 Dresden",51.0385960715,13.7308521429,https://www.dresden.de/apps_ext/ParkplatzApp/index?0-1.ILinkListener-areaContainer-3-listPark-responsiveTable-responsiveTableContainer-listDataRows-0-listData-1-dataContent-lnk,dresden-parken,https://www.dresden.de/freie-parkplaetze
dresden-parken-Strehlener-Strasse,Strehlener Straße,Dresden,235,"Strehlener Straße 27
01069 Dresden",,,https://www.dresden.de/apps_ext/ParkplatzApp/index?0-1.ILinkListener-areaContainer-3-listPark-responsiveTable-responsiveTableContainer-listDataRows-1-listData-1-dataContent-lnk,dresden-parken,https://www.dresden.de/freie-parkplaetze
dresden-parken-Bluherstrasse,Blüherstraße,Dresden,130,"Blüherstraße
01069 Dresden",,,https://www.dresden.de/apps_ext/ParkplatzApp/index?0-1.ILinkListener-areaContainer-4-listPark-responsiveTable-responsiveTableContainer-listDataRows-0-listData-1-dataContent-lnk,dresden-parken,https://www.dresden.de/freie-parkplaetze
dresden-parken-Lindengasse,Lindengasse,Dresden,27,"Lindengasse
01069 Dresden",51.0415005807,13.7417522269,https://www.dresden.de/apps_ext/ParkplatzApp/index?0-1.ILinkListener-areaContainer-4-listPark-responsiveTable-responsiveTableContainer-listDataRows-1-listData-1-dataContent-lnk,dresden-parken,https://www.dresden.de/freie-parkplaetze
dresden-parken-Lingnerallee,Lingnerallee,Dresden,350,"Lingnerallee
01069 Dresden",,,https://www.dresden.de/apps_ext/ParkplatzApp/index?0-1.ILinkListener-areaContainer-4-listPark-responsiveTable-responsiveTableContainer-listDataRows-2-listData-1-dataContent-lnk,dresden-parken,https://www.dresden.de/freie-parkplaetze
dresden-parken-Pirnaische-Strasse,Pirnaische Straße,Dresden,500,"Pirnaische Straße
01069 Dresden",,,https://www.dresden.de/apps_ext/ParkplatzApp/index?0-1.ILinkListener-areaContainer-4-listPark-responsiveTable-responsiveTableContainer-listDataRows-3-listData-1-dataContent-lnk,dresden-parken,https://www.dresden.de/freie-parkplaetze
dresden-parken-Pirnaischer-Platz,Pirnaischer Platz,Dresden,135,"Pirnaischer Platz / Ringstraße
01067 Dresden",51.0481722025,13.7435680797,https://www.dresden.de/apps_ext/ParkplatzApp/index?0-1.ILinkListener-areaContainer-4-listPark-responsiveTable-responsiveTableContainer-listDataRows-4-listData-1-dataContent-lnk,dresden-parken,https://www.dresden.de/freie-parkplaetze
dresden-parken-SP1-Strassburger-Platz,SP1 Straßburger Platz,Dresden,291,"Straßburger Platz 1
01307 Dresden",,,https://www.dresden.de/apps_ext/ParkplatzApp/index?0-1.ILinkListener-areaContainer-4-listPark-responsiveTable-responsiveTableContainer-listDataRows-5-listData-1-dataContent-lnk,dresden-parken,https://www.dresden.de/freie-parkplaetze
dresden-parken-Terrassenufer,Terrassenufer,Dresden,48,"Terrassenufer
01067 Dresden",51.0531653563,13.7481396595,https://www.dresden.de/apps_ext/ParkplatzApp/index?0-1.ILinkListener-areaContainer-4-listPark-responsiveTable-responsiveTableContainer-listDataRows-6-listData-1-dataContent-lnk,dresden-parken,https://www.dresden.de/freie-parkplaetze
dresden-parken-Zinzendorfstrasse,Zinzendorfstraße,Dresden,250,"Zinzendorfstraße
01069 Dresden",,,https://www.dresden.de/apps_ext/ParkplatzApp/index?0-1.ILinkListener-areaContainer-4-listPark-responsiveTable-responsiveTableContainer-listDataRows-7-listData-1-dataContent-lnk,dresden-parken,https://www.dresden.de/freie-parkplaetze
dresden-parken-Bahnhof-Neustadt,Bahnhof Neustadt,Dresden,40,"Schlesischer Platz
01097 Dresden",,,https://www.dresden.de/apps_ext/ParkplatzApp/index?0-1.ILinkListener-areaContainer-5-listPark-responsiveTable-responsiveTableContainer-listDataRows-0-listData-1-dataContent-lnk,dresden-parken,https://www.dresden.de/freie-parkplaetze
dresden-parken-Palaisplatz,Palaisplatz,Dresden,100,"Palaisplatz
01097 Dresden",,,https://www.dresden.de/apps_ext/ParkplatzApp/index?0-1.ILinkListener-areaContainer-5-listPark-responsiveTable-responsiveTableContainer-listDataRows-1-listData-1-dataContent-lnk,dresden-parken,https://www.dresden.de/freie-parkplaetze
dresden-parken-Sarrasanistrasse,Sarrasanistraße,Dresden,55,"Sarrasanistraße
01097 Dresden",51.0576266063,13.7450239818,https://www.dresden.de/apps_ext/ParkplatzApp/index?0-1.ILinkListener-areaContainer-5-listPark-responsiveTable-responsiveTableContainer-listDataRows-2-listData-1-dataContent-lnk,dresden-parken,https://www.dresden.de/freie-parkplaetze
dresden-parken-Theresienstrasse,Theresienstraße,Dresden,140,"Theresienstraße 15
01097 Dresden",51.0631677006,13.7420210937,https://www.dresden.de/apps_ext/ParkplatzApp/index?0-1.ILinkListener-areaContainer-5-listPark-responsiveTable-responsiveTableContainer-listDataRows-3-listData-1-dataContent-lnk,dresden-parken,https://www.dresden.de/freie-parkplaetze
dresden-parken-Wiesentorstrasse,Wiesentorstraße,Dresden,120,"Wiesentorstraße
01097 Dresden",51.0567049614,13.742909341,https://www.dresden.de/apps_ext/ParkplatzApp/index?0-1.ILinkListener-areaContainer-5-listPark-responsiveTable-responsiveTableContainer-listDataRows-4-listData-1-dataContent-lnk,dresden-parken,https://www.dresden.de/freie-parkplaetze
dresden-parken-Wigardstrasse,Wigardstraße,Dresden,180,"Wigardstraße
01097 Dresden",,,https://www.dresden.de/apps_ext/ParkplatzApp/index?0-1.ILinkListener-areaContainer-5-listPark-responsiveTable-responsiveTableContainer-listDataRows-5-listData-1-dataContent-lnk,dresden-parken,https://www.dresden.de/freie-parkplaetze
dresden-parken-Fidelio-F-Finke-Strasse,Fidelio-F.-Finke-Straße,Dresden,105,"Fidelio-F.-Finke-Straße
01326 Dresden",,,https://www.dresden.de/apps_ext/ParkplatzApp/index?0-1.ILinkListener-areaContainer-6-listPark-responsiveTable-responsiveTableContainer-listDataRows-0-listData-1-dataContent-lnk,dresden-parken,https://www.dresden.de/freie-parkplaetze
dresden-parken-Messe,Messe,Dresden,1200,"Messering 6
01067 Dresden",51.0674629065,13.7195055759,https://www.dresden.de/apps_ext/ParkplatzApp/index?0-1.ILinkListener-areaContainer-6-listPark-responsiveTable-responsiveTableContainer-listDataRows-1-listData-1-dataContent-lnk,dresden-parken,https://www.dresden.de/freie-parkplaetze
dresden-parken-Buhlau,Bühlau,Dresden,9,"Bautzner Landstraße
Dresden",,,https://www.dresden.de/apps_ext/ParkplatzApp/index?0-1.ILinkListener-areaContainer-7-listPark-responsiveTable-responsiveTableContainer-listDataRows-0-listData-1-dataContent-lnk,dresden-parken,https://www.dresden.de/freie-parkplaetze
dresden-parken-Cossebaude,Cossebaude,Dresden,38,"Bahnhofstraße Cossebaude
01462 Dresden",,,https://www.dresden.de/apps_ext/ParkplatzApp/index?0-1.ILinkListener-areaContainer-7-listPark-responsiveTable-responsiveTableContainer-listDataRows-1-listData-1-dataContent-lnk,dresden-parken,https://www.dresden.de/freie-parkplaetze
dresden-parken-Gompitz,Gompitz,Dresden,46,"Gompitzer Höhe
01156 Dresden",,,https://www.dresden.de/apps_ext/ParkplatzApp/index?0-1.ILinkListener-areaContainer-7-listPark-responsiveTable-responsiveTableContainer-listDataRows-2-listData-1-dataContent-lnk,dresden-parken,https://www.dresden.de/freie-parkplaetze
dresden-parken-Kaditz,Kaditz,Dresden,190,"Washingtonstraße
01139 Dresden",51.0813055504,13.6910092371,https://www.dresden.de/apps_ext/ParkplatzApp/index?0-1.ILinkListener-areaContainer-7-listPark-responsiveTable-responsiveTableContainer-listDataRows-3-listData-1-dataContent-lnk,dresden-parken,https://www.dresden.de/freie-parkplaetze
dresden-parken-Klotzsche,Klotzsche,Dresden,36,"Zur Neuen Brücke
01109 Dresden",,,https://www.dresden.de/apps_ext/ParkplatzApp/index?0-1.ILinkListener-areaContainer-7-listPark-responsiveTable-responsiveTableContainer-listDataRows-4-listData-1-dataContent-lnk,dresden-parken,https://www.dresden.de/freie-parkplaetze
dresden-parken-Langebruck,Langebrück,Dresden,50,"Güterbahnhofstraße Langebrück
01465 Dresden",,,https://www.dresden.de/apps_ext/ParkplatzApp/index?0-1.ILinkListener-areaContainer-7-listPark-responsiveTable-responsiveTableContainer-listDataRows-5-listData-1-dataContent-lnk,dresden-parken,https://www.dresden.de/freie-parkplaetze
dresden-parken-Pennrich,Pennrich,Dresden,50,"Oskar-Maune-Straße
01156 Dresden",,,https://www.dresden.de/apps_ext/ParkplatzApp/index?0-1.ILinkListener-areaContainer-7-listPark-responsiveTable-responsiveTableContainer-listDataRows-6-listData-1-dataContent-lnk,dresden-parken,https://www.dresden.de/freie-parkplaetze
dresden-parken-Prohlis,Prohlis,Dresden,56,"Langer Weg
01239 Dresden",50.9994080211,13.7994473768,https://www.dresden.de/apps_ext/ParkplatzApp/index?0-1.ILinkListener-areaContainer-7-listPark-responsiveTable-responsiveTableContainer-listDataRows-7-listData-1-dataContent-lnk,dresden-parken,https://www.dresden.de/freie-parkplaetze
dresden-parken-Reick,Reick,Dresden,19,"Lohrmannstraße
01237 Dresden",,,https://www.dresden.de/apps_ext/ParkplatzApp/index?0-1.ILinkListener-areaContainer-7-listPark-responsiveTable-responsiveTableContainer-listDataRows-8-listData-1-dataContent-lnk,dresden-parken,https://www.dresden.de/freie-parkplaetze
dresden-parken-Weissig,Weißig,Dresden,33,"Bautzner Landstraße
01328 Dresden",,,https://www.dresden.de/apps_ext/ParkplatzApp/index?0-1.ILinkListener-areaContainer-7-listPark-responsiveTable-responsiveTableContainer-listDataRows-9-listData-1-dataContent-lnk,dresden-parken,https://www.dresden.de/freie-parkplaetze
dresden-parken-Weixdorf-Bad,Weixdorf Bad,Dresden,24,"Platz des Friedens
01108 Dresden",,,https://www.dresden.de/apps_ext/ParkplatzApp/index?0-1.ILinkListener-areaContainer-7-listPark-responsiveTable-responsiveTableContainer-listDataRows-10-listData-1-dataContent-lnk,dresden-parken,https://www.dresden.de/freie-parkplaetze
dresden-parken-Ammonstrasse-Bus,Ammonstraße Bus,Dresden,45,"Ammonstraße
01069 Dresden",,,https://www.dresden.de/apps_ext/ParkplatzApp/index?0-1.ILinkListener-areaContainer-8-listPark-responsiveTable-responsiveTableContainer-listDataRows-0-listData-1-dataContent-lnk,dresden-parken,https://www.dresden.de/freie-parkplaetze
dresden-parken-Pieschener-Allee-Bus,Pieschener Allee Bus,Dresden,94,"Pieschener Allee
01067 Dresden",,,https://www.dresden.de/apps_ext/ParkplatzApp/index?0-1.ILinkListener-areaContainer-8-listPark-responsiveTable-responsiveTableContainer-listDataRows-1-listData-1-dataContent-lnk,dresden-parken,https://www.dresden.de/freie-parkplaetze
dresden-parken-Terrassenufer-Bus,Terrassenufer Bus,Dresden,22,"Terrassenufer
01067 Dresden",,,https://www.dresden.de/apps_ext/ParkplatzApp/index?0-1.ILinkListener-areaContainer-8-listPark-responsiveTable-responsiveTableContainer-listDataRows-2-listData-1-dataContent-lnk,dresden-parken,https://www.dresden.de/freie-parkplaetze
vtmanager-duesseldorf-parken-PH-01,PH 01 - Ratinger Tor,Düsseldorf,,,,,http://www.bb-parkhaus.de/parken/duesseldorf/parkhaus/duesseldorf-ratinger-tor/?cHash=f7da6ddbd4e78cff5ee93f6b1ac3c17c,vtmanager-duesseldorf-parken,https://vtmanager.duesseldorf.de/info/?parkquartier#main
vtmanager-duesseldorf-parken-PH-02,PH 02 - Kunstsammlung,Düsseldorf,,,,,http://www.idr.de/html/parkhaus_grabbeplatz.shtml,vtmanager-duesseldorf-parken,https://vtmanager.duesseldorf.de/info/?parkquartier#main
vtmanager-duesseldorf-parken-PH-03,PH 03 - Kunsthalle,Düsseldorf,,,,,https://www.parkservice24.de/index.php?id=47&L=0&tx_crzparkplatz_pi2[todo]=singleView&tx_crzparkplatz_pi2[show]=10,vtmanager-duesseldorf-parken,https://vtmanager.duesseldorf.de/info/?parkquartier#main
vtmanager-duesseldorf-parken-PH-04,PH 04 - Carlsplatz,Düsseldorf,,,,,http://www.idr.de/html/parkhaus_carlsplatz.shtml,vtmanager-duesseldorf-parken,https://vtmanager.duesseldorf.de/info/?parkquartier#main
vtmanager-duesseldorf-parken-PH-05,PH 05 - Carsch-Haus,Düsseldorf,,,,,https://www.q-park.de/de/bei-q-park-parken/stadt/dusseldorf/carsch-haus,vtmanager-duesseldorf-parken,https://vtmanager.duesseldorf.de/info/?parkquartier#main
vtmanager-duesseldorf-parken-PH-06,PH 06 - Kaufhof Kö,Düsseldorf,,,,,https://www.galeria-kaufhof.de/filialen/duesseldorf-koenigsallee/,vtmanager-duesseldorf-parken,https://vtmanager.duesseldorf.de/info/?parkquartier#main
vtmanager-duesseldorf-parken-PH-07,PH 07 - Trinkaus-Center,Düsseldorf,,,,,http://www.apcoa.de/parken-in/duesseldorf/trinkaus-galerie.html,vtmanager-duesseldorf-parken,https://vtmanager.duesseldorf.de/info/?parkquartier#main
vtmanager-duesseldorf-parken-PH-08,PH 08 - Hohe Straße,Düsseldorf,189,,,,https://www.parkservice24.de/index.php?id=47&L=0&tx_crzparkplatz_pi2[todo]=singleView&tx_crzparkplatz_pi2[show]=11,vtmanager-duesseldorf-parken,https://vtmanager.duesseldorf.de/info/?parkquartier#main
vtmanager-duesseldorf-parken-PH-10,PH 10 - Bleichstraße,Düsseldorf,481,,,,https://www.parkservice24.de/index.php?id=47&L=0&tx_crzparkplatz_pi2[todo]=singleView&tx_crzparkplatz_pi2[show]=13,vtmanager-duesseldorf-parken,https://vtmanager.duesseldorf.de/info/?parkquartier#main
vtmanager-duesseldorf-parken-PH-11,PH 11 - Karstadt,Düsseldorf,439,,,,http://www.karstadt.de/on/demandware.store/Sites-Karstadt-Site/de/Stores-Details?StoreID=001121,vtmanager-duesseldorf-parken,https://vtmanager.duesseldorf.de/info/?parkquartier#main
vtmanager-duesseldorf-parken-PH-12,PH 12 - Kaufhof Wehrhahn,Düsseldorf,,,,,https://www.q-park.de/de/bei-q-park-parken/stadt/dusseldorf/kaufhof-am-wehrhahn,vtmanager-duesseldorf-parken,https://vtmanager.duesseldorf.de/info/?parkquartier#main
vtmanager-duesseldorf-parken-PH-13,PH 13 - Am Wehrhahn 72,Düsseldorf,70,,,,http://www.parkautomatic.de/deutsch/parkhaus/wehrhahn.html,vtmanager-duesseldorf-parken,https://vtmanager.duesseldorf.de/info/?parkquartier#main
vtmanager-duesseldorf-parken-PH-16,PH 16 - Japan-Center,Düsseldorf,558,,,,http://www.apcoa.de/parken-in/duesseldorf/nikko.html,vtmanager-duesseldorf-parken,https://vtmanager.duesseldorf.de/info/?parkquartier#main
vtmanager-duesseldorf-parken-PH-17,PH 17 - Grupellostraße,Düsseldorf,184,,,,http://www.contipark.de/de-DE/find-parking/duesseldorf-parkhaus-grupellostr/,vtmanager-duesseldorf-parken,https://vtmanager.duesseldorf.de/info/?parkquartier#main
vtmanager-duesseldorf-parken-PH-18,PH 18 - Bendemannstraße,Düsseldorf,302,,,,http://www.contipark.de/de-DE/find-parking/duesseldorf-parkhaus-bendemannstr/,vtmanager-duesseldorf-parken,https://vtmanager.duesseldorf.de/info/?parkquartier#main
vtmanager-duesseldorf-parken-PH-20,PH 20 - Charlottenstr. 50,Düsseldorf,249,,,,http://www.parkautomatic.de/deutsch/parkhaus/charlot.html,vtmanager-duesseldorf-parken,https://vtmanager.duesseldorf.de/info/?parkquartier#main
vtmanager-duesseldorf-parken-PH-21,PH 21 - ParkCenter Kö,Düsseldorf,228,,,,https://www.parkcenter-koe.de/,vtmanager-duesseldorf-parken,https://vtmanager.duesseldorf.de/info/?parkquartier#main
vtmanager-duesseldorf-parken-PH-22,PH 22 - Kreuzstraße 27,Düsseldorf,179,,,,http://www.parkautomatic.de/deutsch/parkhaus/kreuz.html,vtmanager-duesseldorf-parken,https://vtmanager.duesseldorf.de/info/?parkquartier#main
vtmanager-duesseldorf-parken-PH-23,PH 23 - Crown,Düsseldorf,565,,,,http://www.parkhaus-crown.de,vtmanager-duesseldorf-parken,https://vtmanager.duesseldorf.de/info/?parkquartier#main
vtmanager-duesseldorf-parken-PH-24,PH 24 - Moll,Düsseldorf,,,,,,vtmanager-duesseldorf-parken,https://vtmanager.duesseldorf.de/info/?parkquartier#main
vtmanager-duesseldorf-parken-PH-25,PH 25 - Talstraße,Düsseldorf,250,,,,http://www.parkautomatic.de/deutsch/parkhaus/tal.html,vtmanager-duesseldorf-parken,https://vtmanager.duesseldorf.de/info/?parkquartier#main
vtmanager-duesseldorf-parken-PH-26,PH 26 - Luisenstraße,Düsseldorf,149,,,,http://parkhaus-duesseldorf.de/wp/parkhaus/,vtmanager-duesseldorf-parken,https://vtmanager.duesseldorf.de/info/?parkquartier#main
vtmanager-duesseldorf-parken-PH-29,PH 29 - Friedrichstr.,Düsseldorf,,,,,https://www.q-park.de/de/bei-q-park-parken/stadt/dusseldorf/friedrichstra%C3%9Fe,vtmanager-duesseldorf-parken,https://vtmanager.duesseldorf.de/info/?parkquartier#main
vtmanager-duesseldorf-parken-PH-33,PH 33 - EDEKA/ALDI,Düsseldorf,,,,,http://www.apcoa.de/parken-in/duesseldorf/dieterich-karree.html,vtmanager-duesseldorf-parken,https://vtmanager.duesseldorf.de/info/?parkquartier#main
vtmanager-duesseldorf-parken-PH-35,PH 35 - Wehrhahn-Center,Düsseldorf,,,,,http://www.contipark.de/de-DE/find-parking/duesseldorf-tiefgarage-wehrhahn-center/,vtmanager-duesseldorf-parken,https://vtmanager.duesseldorf.de/info/?parkquartier#main
vtmanager-duesseldorf-parken-PH-37,PH 37 - Hauptbahnhof-Ost,Düsseldorf,1081,,,,http://www.contipark.de/de-DE/find-parking/duesseldorf-parkhaus-hauptbahnhof/,vtmanager-duesseldorf-parken,https://vtmanager.duesseldorf.de/info/?parkquartier#main
vtmanager-duesseldorf-parken-PH-39,PH 39 - Kö-Galerie,Düsseldorf,518,,,,http://www.apcoa.de/parken-in/duesseldorf/koe-galerie.html,vtmanager-duesseldorf-parken,https://vtmanager.duesseldorf.de/info/?parkquartier#main
vtmanager-duesseldorf-parken-PH-40,PH 40 - Kreuzstraße 62,Düsseldorf,300,,,,,vtmanager-duesseldorf-parken,https://vtmanager.duesseldorf.de/info/?parkquartier#main
vtmanager-duesseldorf-parken-PH-41,PH 41 - Goebenstraße,Düsseldorf,243,,,,,vtmanager-duesseldorf-parken,https://vtmanager.duesseldorf.de/info/?parkquartier#main
vtmanager-duesseldorf-parken-PH-42,PH 42 - Rheinufer,Düsseldorf,559,,,,http://www.contipark.de/de-DE/find-parking/duesseldorf-tiefgarage-altstadt-rheinufer-p1/,vtmanager-duesseldorf-parken,https://vtmanager.duesseldorf.de/info/?parkquartier#main
vtmanager-duesseldorf-parken-PH-43,PH 43 - Liesegangstraße,Düsseldorf,124,,,,https://www.parkservice24.de/index.php?id=47&L=0&tx_crzparkplatz_pi2[todo]=singleView&tx_crzparkplatz_pi2[show]=18,vtmanager-duesseldorf-parken,https://vtmanager.duesseldorf.de/info/?parkquartier#main
vtmanager-duesseldorf-parken-PH-45,PH 45 - Klosterstraße,Düsseldorf,198,,,,,vtmanager-duesseldorf-parken,https://vtmanager.duesseldorf.de/info/?parkquartier#main
vtmanager-duesseldorf-parken-PH-46,PH 46 - SCHADOW ARKADEN,Düsseldorf,693,,,,http://schadow-arkaden.com/parken/index.html,vtmanager-duesseldorf-parken,https://vtmanager.duesseldorf.de/info/?parkquartier#main
vtmanager-duesseldorf-parken-PH-47,PH 47 - Rheinterrasse,Düsseldorf,,,,,https://www.parkservice24.de/index.php?id=47&L=0&tx_crzparkplatz_pi2[todo]=singleView&tx_crzparkplatz_pi2[show]=15,vtmanager-duesseldorf-parken,https://vtmanager.duesseldorf.de/info/?parkquartier#main
vtmanager-duesseldorf-parken-PH-48,PH 48 - SEVENS/Saturn,Düsseldorf,262,,,,http://www.apcoa.de/parken-in/duesseldorf/sevens.html,vtmanager-duesseldorf-parken,https://vtmanager.duesseldorf.de/info/?parkquartier#main
vtmanager-duesseldorf-parken-PH-50,PH 50 - KÖ 59,Düsseldorf,204,,,,https://www.q-park.de/de/bei-q-park-parken/stadt/dusseldorf/ko-59,vtmanager-duesseldorf-parken,https://vtmanager.duesseldorf.de/info/?parkquartier#main
vtmanager-duesseldorf-parken-PH-51,PH 51 - GAP 15,Düsseldorf,386,,,,https://www.q-park.de/de/bei-q-park-parken/stadt/dusseldorf/gap-15,vtmanager-duesseldorf-parken,https://vtmanager.duesseldorf.de/info/?parkquartier#main
vtmanager-duesseldorf-parken-PH-52,PH 52 - Düsseldorf Arcaden,Düsseldorf,792,,,,http://www.contipark.de/de-DE/find-parking/duesseldorf-parkhaus-arcaden/,vtmanager-duesseldorf-parken,https://vtmanager.duesseldorf.de/info/?parkquartier#main
vtmanager-duesseldorf-parken-PH-53,PH 53 - Kö-Bogen/Breuninger,Düsseldorf,,,,,http://www.apcoa.de/parken-in/duesseldorf/koe-bogen.html,vtmanager-duesseldorf-parken,https://vtmanager.duesseldorf.de/info/?parkquartier#main
vtmanager-duesseldorf-parken-PH-54,PH 54 - Barbarossaplatz,Düsseldorf,244,,,,https://www.park-one.com/standorte/duesseldorf/barbarossaplatz/ ,vtmanager-duesseldorf-parken,https://vtmanager.duesseldorf.de/info/?parkquartier#main
esslingen-parken-Bahnhof-Dick,Bahnhof/Dick,Esslingen,390,,,,,esslingen-parken,https://www.esslingen.de/start/es_services/Parkhaeuser.html
esslingen-parken-DAS-ES,DAS ES,Esslingen,280,,,,,esslingen-parken,https://www.esslingen.de/start/es_services/Parkhaeuser.html
esslingen-parken-DICK,DICK,Esslingen,231,,,,,esslingen-parken,https://www.esslingen.de/start/es_services/Parkhaeuser.html
esslingen-parken-Karstadt,Karstadt,Esslingen,,,,,,esslingen-parken,https://www.esslingen.de/start/es_services/Parkhaeuser.html
esslingen-parken-Kreissparkasse-Haus-der-Kunden,Kreissparkasse (Haus der Kunden),Esslingen,80,,,,,esslingen-parken,https://www.esslingen.de/start/es_services/Parkhaeuser.html
esslingen-parken-KA14ferstraAYe-Altstadt,KÃ¼ferstraÃŸe/Altstadt,Esslingen,345,,,,,esslingen-parken,https://www.esslingen.de/start/es_services/Parkhaeuser.html
esslingen-parken-Marktplatz,Marktplatz,Esslingen,139,,,,,esslingen-parken,https://www.esslingen.de/start/es_services/Parkhaeuser.html
esslingen-parken-Neckar-Forum-Hotel,Neckar Forum Hotel,Esslingen,240,,,,,esslingen-parken,https://www.esslingen.de/start/es_services/Parkhaeuser.html
esslingen-parken-Pliensauturm,Pliensauturm,Esslingen,216,,,,,esslingen-parken,https://www.esslingen.de/start/es_services/Parkhaeuser.html
ffh-parken-frankfurt-Borse,Börse,Frankfurt,893,,,,,ffh-parken,https://www.ffh.de/verkehr/parkhaeuser/
ffh-parken-frankfurt-Alte-Oper,Alte Oper,Frankfurt,407,,,,,ffh-parken,https://www.ffh.de/verkehr/parkhaeuser/
ffh-parken-frankfurt-Hauptbahnhof-Sud,Hauptbahnhof Süd,Frankfurt,364,,,,,ffh-parken,https://www.ffh.de/verkehr/parkhaeuser/
ffh-parken-frankfurt-Am-Theater,Am Theater,Frankfurt,371,,,,,ffh-parken,https://www.ffh.de/verkehr/parkhaeuser/
ffh-parken-frankfurt-Baseler-Platz,Baseler Platz,Frankfurt,384,,,,,ffh-parken,https://www.ffh.de/verkehr/parkhaeuser/
ffh-parken-frankfurt-Hauptwache,Hauptwache,Frankfurt,426,,,,,ffh-parken,https://www.ffh.de/verkehr/parkhaeuser/
ffh-parken-frankfurt-Konstabler,Konstabler,Frankfurt,809,,,,,ffh-parken,https://www.ffh.de/verkehr/parkhaeuser/
ffh-parken-frankfurt-Am-Gericht,Am Gericht,Frankfurt,680,,,,,ffh-parken,https://www.ffh.de/verkehr/parkhaeuser/
ffh-parken-frankfurt-MyZeil,MyZeil,Frankfurt,747,,,,,ffh-parken,https://www.ffh.de/verkehr/parkhaeuser/
ffh-parken-frankfurt-Konrad-Adenauer-Strasse,Konrad-Adenauer-Straße,Frankfurt,634,,,,,ffh-parken,https://www.ffh.de/verkehr/parkhaeuser/
ffh-parken-frankfurt-Karstadt,Karstadt,Frankfurt,693,,,,,ffh-parken,https://www.ffh.de/verkehr/parkhaeuser/
ffh-parken-wiesbaden-RMCC,RMCC,Wiesbaden,700,,,,,ffh-parken,https://www.ffh.de/verkehr/parkhaeuser/
ffh-parken-wiesbaden-Luisenplatz,Luisenplatz,Wiesbaden,292,,,,,ffh-parken,https://www.ffh.de/verkehr/parkhaeuser/
ffh-parken-wiesbaden-Luisenforum,Luisenforum,Wiesbaden,800,,,,,ffh-parken,https://www.ffh.de/verkehr/parkhaeuser/
ffh-parken-wiesbaden-Galeria-Kaufhof,Galeria Kaufhof,Wiesbaden,238,,,,,ffh-parken,https://www.ffh.de/verkehr/parkhaeuser/
ffh-parken-wiesbaden-City-1,City 1,Wiesbaden,125,,,,,ffh-parken,https://www.ffh.de/verkehr/parkhaeuser/
ffh-parken-wiesbaden-City-2,City 2,Wiesbaden,240,,,,,ffh-parken,https://www.ffh.de/verkehr/parkhaeuser/
ffh-parken-wiesbaden-Mauritius-Galerie,Mauritius Galerie,Wiesbaden,563,,,,,ffh-parken,https://www.ffh.de/verkehr/parkhaeuser/
ffh-parken-wiesbaden-Coulinstrasse,Coulinstrasse,Wiesbaden,343,,,,,ffh-parken,https://www.ffh.de/verkehr/parkhaeuser/
ffh-parken-wiesbaden-Karstadt,Karstadt,Wiesbaden,355,,,,,ffh-parken,https://www.ffh.de/verkehr/parkhaeuser/
ffh-parken-wiesbaden-Markt,Markt,Wiesbaden,540,,,,,ffh-parken,https://www.ffh.de/verkehr/parkhaeuser/
ffh-parken-wiesbaden-Theater,Theater,Wiesbaden,320,,,,,ffh-parken,https://www.ffh.de/verkehr/parkhaeuser/
ffh-parken-wiesbaden-Kurhaus-Casino,Kurhaus/Casino,Wiesbaden,416,,,,,ffh-parken,https://www.ffh.de/verkehr/parkhaeuser/
ffh-parken-wiesbaden-Tiefgarage-Liliencarre,Tiefgarage Liliencarre,Wiesbaden,530,,,,,ffh-parken,https://www.ffh.de/verkehr/parkhaeuser/
ffh-parken-wiesbaden-Parkhaus-Liliencarre,Parkhaus Liliencarre,Wiesbaden,150,,,,,ffh-parken,https://www.ffh.de/verkehr/parkhaeuser/
ffh-parken-mannheim-Collini-Center,Collini Center,Mannheim,,,,,,ffh-parken,https://www.ffh.de/verkehr/parkhaeuser/
ffh-parken-mannheim-Mulde-Collini-Center,Mulde Collini Center,Mannheim,,,,,,ffh-parken,https://www.ffh.de/verkehr/parkhaeuser/
ffh-parken-mannheim-U2,U2,Mannheim,,,,,,ffh-parken,https://www.ffh.de/verkehr/parkhaeuser/
ffh-parken-mannheim-H6,H6,Mannheim,,,,,,ffh-parken,https://www.ffh.de/verkehr/parkhaeuser/
ffh-parken-mannheim-G1-Marktplatz,G1 Marktplatz,Mannheim,,,,,,ffh-parken,https://www.ffh.de/verkehr/parkhaeuser/
ffh-parken-mannheim-D5-Reiss-Museum,"D5, Reiß-Museum",Mannheim,,,,,,ffh-parken,https://www.ffh.de/verkehr/parkhaeuser/
ffh-parken-mannheim-D3,D3,Mannheim,,,,,,ffh-parken,https://www.ffh.de/verkehr/parkhaeuser/
ffh-parken-mannheim-C1,C1,Mannheim,,,,,,ffh-parken,https://www.ffh.de/verkehr/parkhaeuser/
ffh-parken-mannheim-N1-Stadthaus,N1 Stadthaus,Mannheim,,,,,,ffh-parken,https://www.ffh.de/verkehr/parkhaeuser/
ffh-parken-mannheim-N2-Stadthaus,N2 Stadthaus,Mannheim,,,,,,ffh-parken,https://www.ffh.de/verkehr/parkhaeuser/
ffh-parken-mannheim-Parkplatz-M4a,Parkplatz M4a,Mannheim,,,,,,ffh-parken,https://www.ffh.de/verkehr/parkhaeuser/
ffh-parken-mannheim-N6-Standard-Holiday-Inn,"N6 Standard, Holiday Inn",Mannheim,,,,,,ffh-parken,https://www.ffh.de/verkehr/parkhaeuser/
ffh-parken-mannheim-N6-Komfort,N6 Komfort,Mannheim,,,,,,ffh-parken,https://www.ffh.de/verkehr/parkhaeuser/
ffh-parken-mannheim-Hbf-P1,Hbf P1,Mannheim,,,,,,ffh-parken,https://www.ffh.de/verkehr/parkhaeuser/
ffh-parken-mannheim-Hbf-P2,Hbf P2,Mannheim,,,,,,ffh-parken,https://www.ffh.de/verkehr/parkhaeuser/
ffh-parken-mannheim-Hbf-P3,Hbf P3,Mannheim,,,,,,ffh-parken,https://www.ffh.de/verkehr/parkhaeuser/
ffh-parken-mannheim-Klinikum,Klinikum,Mannheim,,,,,,ffh-parken,https://www.ffh.de/verkehr/parkhaeuser/
ffh-parken-mannheim-Messe-P6-P8,Messe P6-P8,Mannheim,,,,,,ffh-parken,https://www.ffh.de/verkehr/parkhaeuser/
ffh-parken-mannheim-SAP-Arena-P1,SAP-Arena P1,Mannheim,,,,,,ffh-parken,https://www.ffh.de/verkehr/parkhaeuser/
ffh-parken-mannheim-SAP-Arena-P2,SAP-Arena P2,Mannheim,,,,,,ffh-parken,https://www.ffh.de/verkehr/parkhaeuser/
ffh-parken-mannheim-SAP-Arena-P3,SAP-Arena P3,Mannheim,,,,,,ffh-parken,https://www.ffh.de/verkehr/parkhaeuser/
ffh-parken-kassel-City-Point,City Point,Kassel,220,,,,,ffh-parken,https://www.ffh.de/verkehr/parkhaeuser/
ffh-parken-kassel-Theaterplatz,Theaterplatz,Kassel,228,,,,,ffh-parken,https://www.ffh.de/verkehr/parkhaeuser/
ffh-parken-kassel-Friedrichsplatz,Friedrichsplatz,Kassel,980,,,,,ffh-parken,https://www.ffh.de/verkehr/parkhaeuser/
ffh-parken-kassel-Wilhelmsstrasse,Wilhelmsstraße,Kassel,322,,,,,ffh-parken,https://www.ffh.de/verkehr/parkhaeuser/
ffh-parken-kassel-Rathaus,Rathaus,Kassel,298,,,,,ffh-parken,https://www.ffh.de/verkehr/parkhaeuser/
ffh-parken-kassel-Kurfursten-Galerie,Kurfürsten Galerie,Kassel,620,,,,,ffh-parken,https://www.ffh.de/verkehr/parkhaeuser/
ffh-parken-kassel-Galeria-Kaufhof,Galeria Kaufhof,Kassel,235,,,,,ffh-parken,https://www.ffh.de/verkehr/parkhaeuser/
ffh-parken-kassel-Martinskirche,Martinskirche,Kassel,113,,,,,ffh-parken,https://www.ffh.de/verkehr/parkhaeuser/
ffh-parken-kassel-Garde-du-Corps,Garde-du-Corps,Kassel,360,,,,,ffh-parken,https://www.ffh.de/verkehr/parkhaeuser/
ffh-parken-kassel-Schloss-Wilhelmshohe,Schloss Wilhelmshöhe,Kassel,420,,,,,ffh-parken,https://www.ffh.de/verkehr/parkhaeuser/
ffh-parken-kassel-Herkules-Besucherzentrum,Herkules Besucherzentrum,Kassel,340,,,,,ffh-parken,https://www.ffh.de/verkehr/parkhaeuser/
ffh-parken-kassel-Atrium,Atrium,Kassel,150,,,,,ffh-parken,https://www.ffh.de/verkehr/parkhaeuser/
ffh-parken-bad-homburg-Louisen-Arkaden,Louisen Arkaden,Bad-Homburg,,,,,,ffh-parken,https://www.ffh.de/verkehr/parkhaeuser/
ffh-parken-bad-homburg-Parkgarage-Schloss,Parkgarage Schloss,Bad-Homburg,,,,,,ffh-parken,https://www.ffh.de/verkehr/parkhaeuser/
ffh-parken-bad-homburg-Parkgarage-Kurhaus,Parkgarage Kurhaus,Bad-Homburg,,,,,,ffh-parken,https://www.ffh.de/verkehr/parkhaeuser/
ffh-parken-bad-homburg-Parkgarage-Rathaus,Parkgarage Rathaus,Bad-Homburg,,,,,,ffh-parken,https://www.ffh.de/verkehr/parkhaeuser/
ffh-parken-bad-homburg-Parkhaus-Louisencenter,Parkhaus Louisencenter,Bad-Homburg,,,,,,ffh-parken,https://www.ffh.de/verkehr/parkhaeuser/
ffh-parken-bad-homburg-Parkhaus-am-Markt,Parkhaus am Markt,Bad-Homburg,,,,,,ffh-parken,https://www.ffh.de/verkehr/parkhaeuser/
ffh-parken-bad-homburg-Parkgarage-Karstadt,Parkgarage Karstadt,Bad-Homburg,,,,,,ffh-parken,https://www.ffh.de/verkehr/parkhaeuser/
ffh-parken-bad-homburg-Am-Bahnhof,Am Bahnhof,Bad-Homburg,,,,,,ffh-parken,https://www.ffh.de/verkehr/parkhaeuser/
hanau-neu-erleben-parken-Tiefgarage-Am-Markt,Tiefgarage Am Markt,Hanau,185,,,,,hanau-neu-erleben-parken,http://www.hanau-neu-erleben.de/reise/parken/072752/index.html
hanau-neu-erleben-parken-Parkhaus-Am-Forum,Parkhaus Am Forum,Hanau,560,,,,,hanau-neu-erleben-parken,http://www.hanau-neu-erleben.de/reise/parken/072752/index.html
hanau-neu-erleben-parken-Parkhaus-Nurnberger-Strasse,Parkhaus Nürnberger Straße,Hanau,348,,,,,hanau-neu-erleben-parken,http://www.hanau-neu-erleben.de/reise/parken/072752/index.html
hanau-neu-erleben-parken-Parkhaus-Kinopolis-2,Parkhaus Kinopolis 2,Hanau,226,,,,,hanau-neu-erleben-parken,http://www.hanau-neu-erleben.de/reise/parken/072752/index.html
hanau-neu-erleben-parken-Parkhaus-Klinikum,Parkhaus Klinikum,Hanau,253,,,,,hanau-neu-erleben-parken,http://www.hanau-neu-erleben.de/reise/parken/072752/index.html
hanau-neu-erleben-parken-Parkhaus-Congress-Park,Parkhaus Congress Park,Hanau,352,,,,,hanau-neu-erleben-parken,http://www.hanau-neu-erleben.de/reise/parken/072752/index.html
hanau-neu-erleben-parken-Tiefgarage-Congress-Park,Tiefgarage Congress Park,Hanau,62,,,,,hanau-neu-erleben-parken,http://www.hanau-neu-erleben.de/reise/parken/072752/index.html
hanau-neu-erleben-parken-Tiefgarage-Forum,Tiefgarage Forum,Hanau,496,,,,,hanau-neu-erleben-parken,http://www.hanau-neu-erleben.de/reise/parken/072752/index.html
hanau-neu-erleben-parken-Parkhaus-Kinopolis,Parkhaus Kinopolis,Hanau,205,,,,,hanau-neu-erleben-parken,http://www.hanau-neu-erleben.de/reise/parken/072752/index.html
hanau-neu-erleben-parken-Parkhaus-City-Center,Parkhaus City Center,Hanau,336,,,,,hanau-neu-erleben-parken,http://www.hanau-neu-erleben.de/reise/parken/072752/index.html
hanau-neu-erleben-parken-Tiefgarage-Klinikum-Sud,Tiefgarage Klinikum Süd,Hanau,99,,,,,hanau-neu-erleben-parken,http://www.hanau-neu-erleben.de/reise/parken/072752/index.html
hanau-neu-erleben-parken-Parkhaus-Gloria-Palais,Parkhaus Gloria Palais,Hanau,280,,,,,hanau-neu-erleben-parken,http://www.hanau-neu-erleben.de/reise/parken/072752/index.html
hanau-neu-erleben-parken-Parkplatz-Main-Kinzig-Halle,Parkplatz Main-Kinzig-Halle,Hanau,194,,,,,hanau-neu-erleben-parken,http://www.hanau-neu-erleben.de/reise/parken/072752/index.html
heilbronn-parken-Am-Bollwerksturm,Am Bollwerksturm,Heilbronn,,,,,,heilbronn-parken,https://www.heilbronn.de/umwelt-mobilitaet/mobilitaet/parken/parkhaeuser.html
heilbronn-parken-Harmonie,Harmonie,Heilbronn,,,,,,heilbronn-parken,https://www.heilbronn.de/umwelt-mobilitaet/mobilitaet/parken/parkhaeuser.html
heilbronn-parken-Kiliansplatz,Kiliansplatz,Heilbronn,,,,,,heilbronn-parken,https://www.heilbronn.de/umwelt-mobilitaet/mobilitaet/parken/parkhaeuser.html
heilbronn-parken-Kathchenhof,Käthchenhof,Heilbronn,,,,,,heilbronn-parken,https://www.heilbronn.de/umwelt-mobilitaet/mobilitaet/parken/parkhaeuser.html
heilbronn-parken-Stadtgalerie,Stadtgalerie,Heilbronn,,,,,,heilbronn-parken,https://www.heilbronn.de/umwelt-mobilitaet/mobilitaet/parken/parkhaeuser.html
heilbronn-parken-Theaterforum-K3,Theaterforum K3,Heilbronn,,,,,,heilbronn-parken,https://www.heilbronn.de/umwelt-mobilitaet/mobilitaet/parken/parkhaeuser.html
heilbronn-parken-Wollhaus,Wollhaus,Heilbronn,,,,,,heilbronn-parken,https://www.heilbronn.de/umwelt-mobilitaet/mobilitaet/parken/parkhaeuser.html
ingolstadt-parken-Congressgarage,Congressgarage,Ingolstadt,,,,,,ingolstadt-parken,https://www.ingolstadt.de/Wirtschaft/parkIN/Derzeit-freie-Parkpl%C3%A4tze
ingolstadt-parken-Festplatz,Festplatz,Ingolstadt,,,,,,ingolstadt-parken,https://www.ingolstadt.de/Wirtschaft/parkIN/Derzeit-freie-Parkpl%C3%A4tze
ingolstadt-parken-Hallenbad,Hallenbad,Ingolstadt,,,,,,ingolstadt-parken,https://www.ingolstadt.de/Wirtschaft/parkIN/Derzeit-freie-Parkpl%C3%A4tze
ingolstadt-parken-Hauptbahnhof-Ost,Hauptbahnhof Ost,Ingolstadt,,,,,,ingolstadt-parken,https://www.ingolstadt.de/Wirtschaft/parkIN/Derzeit-freie-Parkpl%C3%A4tze
ingolstadt-parken-Hauptbahnhof-West,Hauptbahnhof West,Ingolstadt,,,,,,ingolstadt-parken,https://www.ingolstadt.de/Wirtschaft/parkIN/Derzeit-freie-Parkpl%C3%A4tze
ingolstadt-parken-Munster,Münster,Ingolstadt,,,,,,ingolstadt-parken,https://www.ingolstadt.de/Wirtschaft/parkIN/Derzeit-freie-Parkpl%C3%A4tze
ingolstadt-parken-Nordbahnhof,Nordbahnhof,Ingolstadt,,,,,,ingolstadt-parken,https://www.ingolstadt.de/Wirtschaft/parkIN/Derzeit-freie-Parkpl%C3%A4tze
ingolstadt-parken-Reduit-Tilly,Reduit Tilly,Ingolstadt,,,,,,ingolstadt-parken,https://www.ingolstadt.de/Wirtschaft/parkIN/Derzeit-freie-Parkpl%C3%A4tze
ingolstadt-parken-Schloss,Schloss,Ingolstadt,,,,,,ingolstadt-parken,https://www.ingolstadt.de/Wirtschaft/parkIN/Derzeit-freie-Parkpl%C3%A4tze
ingolstadt-parken-Theater-Ost,Theater-Ost,Ingolstadt,,,,,,ingolstadt-parken,https://www.ingolstadt.de/Wirtschaft/parkIN/Derzeit-freie-Parkpl%C3%A4tze
ingolstadt-parken-Theater-West,Theater-West,Ingolstadt,,,,,,ingolstadt-parken,https://www.ingolstadt.de/Wirtschaft/parkIN/Derzeit-freie-Parkpl%C3%A4tze
karlsruhe-parken-Kongresszentrum-PH1,Kongresszentrum PH1,Karlsruhe,,,,,,karlsruhe-parken,https://web1.karlsruhe.de/service/Parken/
karlsruhe-parken-Kongresszentrum-PH2,Kongresszentrum PH2,Karlsruhe,491,,,,,karlsruhe-parken,https://web1.karlsruhe.de/service/Parken/
karlsruhe-parken-Luisenstrasse,Luisenstraße,Karlsruhe,210,,,,,karlsruhe-parken,https://web1.karlsruhe.de/service/Parken/
karlsruhe-parken-Am-Staatstheater,Am Staatstheater,Karlsruhe,190,,,,,karlsruhe-parken,https://web1.karlsruhe.de/service/Parken/
karlsruhe-parken-Passagehof,Passagehof,Karlsruhe,372,,,,,karlsruhe-parken,https://web1.karlsruhe.de/service/Parken/
karlsruhe-parken-Herrenstrasse-Zirkel,Herrenstraße/Zirkel,Karlsruhe,229,,,,,karlsruhe-parken,https://web1.karlsruhe.de/service/Parken/
karlsruhe-parken-Zirkel-P-C,Zirkel (P&C)  ,Karlsruhe,,,,,,karlsruhe-parken,https://web1.karlsruhe.de/service/Parken/
karlsruhe-parken-Schlossplatz,Schlossplatz,Karlsruhe,336,,,,,karlsruhe-parken,https://web1.karlsruhe.de/service/Parken/
karlsruhe-parken-Kreuzstrasse-C-A,Kreuzstraße (C&A),Karlsruhe,52,,,,,karlsruhe-parken,https://web1.karlsruhe.de/service/Parken/
karlsruhe-parken-Kronenplatz,Kronenplatz,Karlsruhe,449,,,,,karlsruhe-parken,https://web1.karlsruhe.de/service/Parken/
karlsruhe-parken-Landesbibliothek,Landesbibliothek,Karlsruhe,63,,,,,karlsruhe-parken,https://web1.karlsruhe.de/service/Parken/
karlsruhe-parken-Friedrichsplatz,Friedrichsplatz,Karlsruhe,250,,,,,karlsruhe-parken,https://web1.karlsruhe.de/service/Parken/
karlsruhe-parken-Karstadt,Karstadt,Karlsruhe,260,,,,,karlsruhe-parken,https://web1.karlsruhe.de/service/Parken/
karlsruhe-parken-Industrie-und-Handelskammer,Industrie und Handelskammer,Karlsruhe,115,,,,,karlsruhe-parken,https://web1.karlsruhe.de/service/Parken/
karlsruhe-parken-Marktplatz,Marktplatz,Karlsruhe,230,,,,,karlsruhe-parken,https://web1.karlsruhe.de/service/Parken/
karlsruhe-parken-Mendelssohnplatz-Scheck-In,Mendelssohnplatz (Scheck-In),Karlsruhe,,,,,,karlsruhe-parken,https://web1.karlsruhe.de/service/Parken/
karlsruhe-parken-Ettlinger-Tor,Ettlinger Tor,Karlsruhe,804,,,,,karlsruhe-parken,https://web1.karlsruhe.de/service/Parken/
karlsruhe-parken-Stephanplatz,Stephanplatz,Karlsruhe,370,,,,,karlsruhe-parken,https://web1.karlsruhe.de/service/Parken/
karlsruhe-parken-Akademiestrasse,Akademiestraße,Karlsruhe,110,,,,,karlsruhe-parken,https://web1.karlsruhe.de/service/Parken/
karlsruhe-parken-Post-Galerie,Post Galerie,Karlsruhe,100,,,,,karlsruhe-parken,https://web1.karlsruhe.de/service/Parken/
karlsruhe-parken-Ludwigsplatz,Ludwigsplatz,Karlsruhe,250,,,,,karlsruhe-parken,https://web1.karlsruhe.de/service/Parken/
kiel-parken-Bei-den-Gerichten,Bei den Gerichten,Kiel,250,,,,,kiel-parken,https://www.kiel.de/de/umwelt_verkehr/auto/parken_innenstadt.php
kiel-parken-Adelheidstrasse,Adelheidstraße,Kiel,60,,,,,kiel-parken,https://www.kiel.de/de/umwelt_verkehr/auto/parken_innenstadt.php
kiel-parken-Bergstrasse,Bergstraße,Kiel,,,,,,kiel-parken,https://www.kiel.de/de/umwelt_verkehr/auto/parken_innenstadt.php
kiel-parken-Exerzierplatz,Exerzierplatz,Kiel,450,,,,,kiel-parken,https://www.kiel.de/de/umwelt_verkehr/auto/parken_innenstadt.php
kiel-parken-Sophienhof-Parkplatz-Hopfenstrasse,Sophienhof (Parkplatz Hopfenstraße),Kiel,134,,,,,kiel-parken,https://www.kiel.de/de/umwelt_verkehr/auto/parken_innenstadt.php
kiel-parken-Sophienhof-Parkhaus,Sophienhof (Parkhaus),Kiel,845,,,,,kiel-parken,https://www.kiel.de/de/umwelt_verkehr/auto/parken_innenstadt.php
kiel-parken-Sophienhof,Sophienhof,Kiel,190,,,,,kiel-parken,https://www.kiel.de/de/umwelt_verkehr/auto/parken_innenstadt.php
kiel-parken-Karstadt-Sophienblatt,Karstadt Sophienblatt,Kiel,560,,,,,kiel-parken,https://www.kiel.de/de/umwelt_verkehr/auto/parken_innenstadt.php
kiel-parken-CAP,CAP,Kiel,458,,,,,kiel-parken,https://www.kiel.de/de/umwelt_verkehr/auto/parken_innenstadt.php
kiel-parken-Sparkassen-Arena,Sparkassen-Arena,Kiel,470,,,,,kiel-parken,https://www.kiel.de/de/umwelt_verkehr/auto/parken_innenstadt.php
kiel-parken-Dreiecksplatz,Dreiecksplatz,Kiel,305,,,,,kiel-parken,https://www.kiel.de/de/umwelt_verkehr/auto/parken_innenstadt.php
kiel-parken-ZOB-Bahnhof,ZOB - Bahnhof,Kiel,541,,,,,kiel-parken,https://www.kiel.de/de/umwelt_verkehr/auto/parken_innenstadt.php
kiel-parken-Forde-Parkhaus,Förde-Parkhaus,Kiel,450,,,,,kiel-parken,https://www.kiel.de/de/umwelt_verkehr/auto/parken_innenstadt.php
kiel-parken-Jensendamm,Jensendamm,Kiel,296,,,,,kiel-parken,https://www.kiel.de/de/umwelt_verkehr/auto/parken_innenstadt.php
kiel-parken-Holstenstrasse-I,Holstenstraße I,Kiel,355,,,,,kiel-parken,https://www.kiel.de/de/umwelt_verkehr/auto/parken_innenstadt.php
kiel-parken-Holstenstrasse-II,Holstenstraße II,Kiel,332,,,,,kiel-parken,https://www.kiel.de/de/umwelt_verkehr/auto/parken_innenstadt.php
kiel-parken-Altstadt,Altstadt,Kiel,572,,,,,kiel-parken,https://www.kiel.de/de/umwelt_verkehr/auto/parken_innenstadt.php
kiel-parken-Hotel-Steigenberger-Conti-Hansa,Hotel Steigenberger - Conti Hansa,Kiel,54,,,,,kiel-parken,https://www.kiel.de/de/umwelt_verkehr/auto/parken_innenstadt.php
kiel-parken-Gaarden,Gaarden,Kiel,163,,,,,kiel-parken,https://www.kiel.de/de/umwelt_verkehr/auto/parken_innenstadt.php
kiel-parken-Ostseekai-Nord,Ostseekai Nord,Kiel,350,,,,,kiel-parken,https://www.kiel.de/de/umwelt_verkehr/auto/parken_innenstadt.php
kiel-parken-Ostseekai-Sud,Ostseekai Süd,Kiel,300,,,,,kiel-parken,https://www.kiel.de/de/umwelt_verkehr/auto/parken_innenstadt.php
koeln-apps-parken-Dom,Dom,Köln,,,,,,koeln-apps-parken,https://www.koeln.de/apps/parken/
koeln-apps-parken-Gross-St-Martin,Groß St. Martin (*),Köln,,,,,,koeln-apps-parken,https://www.koeln.de/apps/parken/
koeln-apps-parken-Hauptbahnhof,Hauptbahnhof,Köln,,,,,,koeln-apps-parken,https://www.koeln.de/apps/parken/
koeln-apps-parken-Philharmonie,Philharmonie (*),Köln,,,,,,koeln-apps-parken,https://www.koeln.de/apps/parken/
koeln-apps-parken-Hohe-Strasse,Hohe Straße,Köln,,,,,,koeln-apps-parken,https://www.koeln.de/apps/parken/
koeln-apps-parken-An-Farina,An Farina,Köln,,,,,,koeln-apps-parken,https://www.koeln.de/apps/parken/
koeln-apps-parken-Gurzenich,Gürzenich,Köln,,,,,,koeln-apps-parken,https://www.koeln.de/apps/parken/
koeln-apps-parken-Kaufhof,Kaufhof,Köln,,,,,,koeln-apps-parken,https://www.koeln.de/apps/parken/
koeln-apps-parken-REWE-City,REWE City,Köln,,,,,,koeln-apps-parken,https://www.koeln.de/apps/parken/
koeln-apps-parken-Maritim,Maritim,Köln,,,,,,koeln-apps-parken,https://www.koeln.de/apps/parken/
koeln-apps-parken-Heumarkt,Heumarkt,Köln,,,,,,koeln-apps-parken,https://www.koeln.de/apps/parken/
koeln-apps-parken-Rhein-Triadem,Rhein Triadem,Köln,,,,,,koeln-apps-parken,https://www.koeln.de/apps/parken/
koeln-apps-parken-Zoo,Zoo (*),Köln,,,,,,koeln-apps-parken,https://www.koeln.de/apps/parken/
koeln-apps-parken-Maastrichter-Strasse,Maastrichter Strasse,Köln,,,,,,koeln-apps-parken,https://www.koeln.de/apps/parken/
koeln-apps-parken-Alte-Wallgasse,Alte Wallgasse,Köln,,,,,,koeln-apps-parken,https://www.koeln.de/apps/parken/
koeln-apps-parken-Im-Klapperhof,Im Klapperhof,Köln,,,,,,koeln-apps-parken,https://www.koeln.de/apps/parken/
koeln-apps-parken-Kaiser-Wilhelm-Ring,Kaiser-Wilhelm-Ring,Köln,,,,,,koeln-apps-parken,https://www.koeln.de/apps/parken/
koeln-apps-parken-Rudolfplatz,Rudolfplatz,Köln,,,,,,koeln-apps-parken,https://www.koeln.de/apps/parken/
koeln-apps-parken-Mediapark,Mediapark,Köln,,,,,,koeln-apps-parken,https://www.koeln.de/apps/parken/
koeln-apps-parken-Sparkasse-Schaafenstr,Sparkasse / Schaafenstr.,Köln,,,,,,koeln-apps-parken,https://www.koeln.de/apps/parken/
koeln-apps-parken-Ringkarree,Ringkarree,Köln,,,,,,koeln-apps-parken,https://www.koeln.de/apps/parken/
koeln-apps-parken-Lanxess-Arena-P1,Lanxess-Arena P1,Köln,,,,,,koeln-apps-parken,https://www.koeln.de/apps/parken/
koeln-apps-parken-Lanxess-Arena-P2,Lanxess-Arena P2,Köln,,,,,,koeln-apps-parken,https://www.koeln.de/apps/parken/
koeln-apps-parken-Lanxess-Arena-P3,Lanxess-Arena P3,Köln,,,,,,koeln-apps-parken,https://www.koeln.de/apps/parken/
koeln-apps-parken-Lanxess-Arena-P4,Lanxess-Arena P4,Köln,,,,,,koeln-apps-parken,https://www.koeln.de/apps/parken/
koeln-apps-parken-Koln-Arcaden,Köln Arcaden,Köln,,,,,,koeln-apps-parken,https://www.koeln.de/apps/parken/
koeln-apps-parken-Bruckenstrasse,Brückenstraße,Köln,,,,,,koeln-apps-parken,https://www.koeln.de/apps/parken/
koeln-apps-parken-Cacilienstrasse,Cäcilienstraße,Köln,,,,,,koeln-apps-parken,https://www.koeln.de/apps/parken/
koeln-apps-parken-Opern-Passagen,Opern Passagen,Köln,,,,,,koeln-apps-parken,https://www.koeln.de/apps/parken/
koeln-apps-parken-Theater-Krebsgasse,Theater/ Krebsgasse,Köln,,,,,,koeln-apps-parken,https://www.koeln.de/apps/parken/
koeln-apps-parken-Karstadt,Karstadt,Köln,,,,,,koeln-apps-parken,https://www.koeln.de/apps/parken/
koeln-apps-parken-KSK-Richmodstr,KSK/ Richmodstr,Köln,,,,,,koeln-apps-parken,https://www.koeln.de/apps/parken/
koeln-apps-parken-Wolfsstrasse,Wolfsstraße,Köln,,,,,,koeln-apps-parken,https://www.koeln.de/apps/parken/
koeln-apps-parken-Bazaar-de-Cologne,Bazaar de Cologne,Köln,,,,,,koeln-apps-parken,https://www.koeln.de/apps/parken/
koeln-apps-parken-BP-Lungengasse,BP Lungengasse,Köln,,,,,,koeln-apps-parken,https://www.koeln.de/apps/parken/
koeln-apps-parken-Am-Neumarkt,Am Neumarkt,Köln,,,,,,koeln-apps-parken,https://www.koeln.de/apps/parken/
koeln-apps-parken-DuMont-Carre,DuMont Carré,Köln,,,,,,koeln-apps-parken,https://www.koeln.de/apps/parken/
koeln-apps-parken-P-R-Stadion-P2,P+R Stadion (P2),Köln,,,,,,koeln-apps-parken,https://www.koeln.de/apps/parken/
koeln-apps-parken-Bruck-Mauspfad,Brück/Mauspfad,Köln,,,,,,koeln-apps-parken,https://www.koeln.de/apps/parken/
koeln-apps-parken-Marsdorf-P-R,Marsdorf P+R,Köln,,,,,,koeln-apps-parken,https://www.koeln.de/apps/parken/
koeln-apps-parken-Stadion-P1,Stadion P1,Köln,,,,,,koeln-apps-parken,https://www.koeln.de/apps/parken/
koeln-apps-parken-Stadion-P3,Stadion P3,Köln,,,,,,koeln-apps-parken,https://www.koeln.de/apps/parken/
koeln-apps-parken-Stadion-P4,Stadion P4,Köln,,,,,,koeln-apps-parken,https://www.koeln.de/apps/parken/
koeln-apps-parken-Stadion-P6,Stadion P6,Köln,,,,,,koeln-apps-parken,https://www.koeln.de/apps/parken/
koeln-apps-parken-Stadion-P7,Stadion P7,Köln,,,,,,koeln-apps-parken,https://www.koeln.de/apps/parken/
koeln-apps-parken-Stadion-P8-PKW,Stadion P8 PKW,Köln,,,,,,koeln-apps-parken,https://www.koeln.de/apps/parken/
koeln-apps-parken-Stadion-P8-Bus,Stadion P8 Bus,Köln,,,,,,koeln-apps-parken,https://www.koeln.de/apps/parken/
konstanz-parken-Altstadt,Altstadt,Konstanz,,,,,,konstanz-parken,https://www.konstanz.de/leben+in+konstanz/parkleitsystem
konstanz-parken-Lago,Lago,Konstanz,,,,,,konstanz-parken,https://www.konstanz.de/leben+in+konstanz/parkleitsystem
konstanz-parken-Marktstatte,Marktstätte,Konstanz,,,,,,konstanz-parken,https://www.konstanz.de/leben+in+konstanz/parkleitsystem
konstanz-parken-Fischmarkt,Fischmarkt,Konstanz,,,,,,konstanz-parken,https://www.konstanz.de/leben+in+konstanz/parkleitsystem
konstanz-parken-Dobele,Döbele,Konstanz,,,,,,konstanz-parken,https://www.konstanz.de/leben+in+konstanz/parkleitsystem
konstanz-parken-Augustiner-Karstadt,Augustiner / Karstadt,Konstanz,,,,,,konstanz-parken,https://www.konstanz.de/leben+in+konstanz/parkleitsystem
konstanz-parken-Benediktiner,Benediktiner,Konstanz,,,,,,konstanz-parken,https://www.konstanz.de/leben+in+konstanz/parkleitsystem
konstanz-parken-Seerheincenter,Seerheincenter,Konstanz,,,,,,konstanz-parken,https://www.konstanz.de/leben+in+konstanz/parkleitsystem
konstanz-parken-Bodenseeforum,Bodenseeforum,Konstanz,,,,,,konstanz-parken,https://www.konstanz.de/leben+in+konstanz/parkleitsystem
konstanz-parken-Byk-Gulden-Str,Byk Gulden Str.,Konstanz,,,,,,konstanz-parken,https://www.konstanz.de/leben+in+konstanz/parkleitsystem
limburg-parken-Altstadt,Altstadt,Limburg,295,,,,,limburg-parken,https://p127393.mittwaldserver.info/LM/_pls/pls.php
limburg-parken-Bahnhof,Bahnhof,Limburg,180,,,,,limburg-parken,https://p127393.mittwaldserver.info/LM/_pls/pls.php
limburg-parken-City,City,Limburg,138,,,,,limburg-parken,https://p127393.mittwaldserver.info/LM/_pls/pls.php
limburg-parken-PH-Mitte,PH-Mitte,Limburg,105,,,,,limburg-parken,https://p127393.mittwaldserver.info/LM/_pls/pls.php
limburg-parken-Sparkasse,Sparkasse,Limburg,75,,,,,limburg-parken,https://p127393.mittwaldserver.info/LM/_pls/pls.php
limburg-parken-Stadthalle,Stadthalle,Limburg,95,,,,,limburg-parken,https://p127393.mittwaldserver.info/LM/_pls/pls.php
limburg-parken-WERKStadt,WERKStadt,Limburg,400,,,,,limburg-parken,https://p127393.mittwaldserver.info/LM/_pls/pls.php
parken-luebeck-1,Haerder-Center,Lübeck,200,,,,,parken-luebeck,https://www.parken-luebeck.de/parkmoeglichkeiten.html
parken-luebeck-5,Am Burgtor,Lübeck,132,,,,,parken-luebeck,https://www.parken-luebeck.de/parkmoeglichkeiten.html
parken-luebeck-6,Linden Arcaden,Lübeck,400,,,,,parken-luebeck,https://www.parken-luebeck.de/parkmoeglichkeiten.html
parken-luebeck-42,Roeckstraße,Lübeck,29,,,,,parken-luebeck,https://www.parken-luebeck.de/parkmoeglichkeiten.html
parken-luebeck-11,Falkenstraße,Lübeck,195,,,,,parken-luebeck,https://www.parken-luebeck.de/parkmoeglichkeiten.html
parken-luebeck-15,Mitte,Lübeck,420,,,,,parken-luebeck,https://www.parken-luebeck.de/parkmoeglichkeiten.html
parken-luebeck-17,Große Burgstraße,Lübeck,17,,,,,parken-luebeck,https://www.parken-luebeck.de/parkmoeglichkeiten.html
parken-luebeck-18,Breite Straße,Lübeck,5,,,,,parken-luebeck,https://www.parken-luebeck.de/parkmoeglichkeiten.html
parken-luebeck-19,Beckergrube,Lübeck,47,,,,,parken-luebeck,https://www.parken-luebeck.de/parkmoeglichkeiten.html
parken-luebeck-20,Obertrave,Lübeck,8,,,,,parken-luebeck,https://www.parken-luebeck.de/parkmoeglichkeiten.html
parken-luebeck-21,Marlesgrube,Lübeck,20,,,,,parken-luebeck,https://www.parken-luebeck.de/parkmoeglichkeiten.html
parken-luebeck-22,Parade,Lübeck,67,,,,,parken-luebeck,https://www.parken-luebeck.de/parkmoeglichkeiten.html
parken-luebeck-23,Großer Bauhof,Lübeck,15,,,,,parken-luebeck,https://www.parken-luebeck.de/parkmoeglichkeiten.html
parken-luebeck-24,Mühlenstraße,Lübeck,49,,,,,parken-luebeck,https://www.parken-luebeck.de/parkmoeglichkeiten.html
parken-luebeck-26,Musterbahn,Lübeck,55,,,,,parken-luebeck,https://www.parken-luebeck.de/parkmoeglichkeiten.html
parken-luebeck-27,Mühlenbrücke,Lübeck,5,,,,,parken-luebeck,https://www.parken-luebeck.de/parkmoeglichkeiten.html
parken-luebeck-28,Brückenweg,Lübeck,16,,,,,parken-luebeck,https://www.parken-luebeck.de/parkmoeglichkeiten.html
parken-luebeck-29,Wallstraße,Lübeck,31,,,,,parken-luebeck,https://www.parken-luebeck.de/parkmoeglichkeiten.html
parken-luebeck-32,Am Bahnhof,Lübeck,31,,,,,parken-luebeck,https://www.parken-luebeck.de/parkmoeglichkeiten.html
parken-luebeck-31,Werner-Kock-Str./Konrad-Adenauer-Str.,Lübeck,61,,,,,parken-luebeck,https://www.parken-luebeck.de/parkmoeglichkeiten.html
parken-luebeck-33,Beim Retteich,Lübeck,10,,,,,parken-luebeck,https://www.parken-luebeck.de/parkmoeglichkeiten.html
parken-luebeck-36,Kanalstraße P1,Lübeck,104,,,,,parken-luebeck,https://www.parken-luebeck.de/parkmoeglichkeiten.html
parken-luebeck-35,Hermann-Lange-Straße,Lübeck,11,,,,,parken-luebeck,https://www.parken-luebeck.de/parkmoeglichkeiten.html
parken-luebeck-38,Müllergarten u. Mühlendamm,Lübeck,62,,,,,parken-luebeck,https://www.parken-luebeck.de/parkmoeglichkeiten.html
parken-luebeck-43,Am Burgfeld /Gericht,Lübeck,,,,,,parken-luebeck,https://www.parken-luebeck.de/parkmoeglichkeiten.html
parken-luebeck-44,Fährstraße,Lübeck,10,,,,,parken-luebeck,https://www.parken-luebeck.de/parkmoeglichkeiten.html
parken-luebeck-45,Lastadie P3,Lübeck,299,,,,,parken-luebeck,https://www.parken-luebeck.de/parkmoeglichkeiten.html
parken-luebeck-46,MuK,Lübeck,347,,,,,parken-luebeck,https://www.parken-luebeck.de/parkmoeglichkeiten.html
parken-luebeck-47,Vor dem Radisson Blu Senator Hotel,Lübeck,57,,,,,parken-luebeck,https://www.parken-luebeck.de/parkmoeglichkeiten.html
parken-luebeck-48,Moislinger Allee,Lübeck,7,,,,,parken-luebeck,https://www.parken-luebeck.de/parkmoeglichkeiten.html
parken-luebeck-50,Nördliche Wallhalbinsel,Lübeck,57,,,,,parken-luebeck,https://www.parken-luebeck.de/parkmoeglichkeiten.html
parken-luebeck-51,Possehlstraße,Lübeck,150,,,,,parken-luebeck,https://www.parken-luebeck.de/parkmoeglichkeiten.html
parken-luebeck-52,Strand/Kowitzberg,Lübeck,750,,,,,parken-luebeck,https://www.parken-luebeck.de/parkmoeglichkeiten.html
parken-luebeck-53,Möwenstein,Lübeck,60,,,,,parken-luebeck,https://www.parken-luebeck.de/parkmoeglichkeiten.html
parken-luebeck-54,Backbord,Lübeck,135,,,,,parken-luebeck,https://www.parken-luebeck.de/parkmoeglichkeiten.html
parken-luebeck-55,Godewind,Lübeck,120,,,,,parken-luebeck,https://www.parken-luebeck.de/parkmoeglichkeiten.html
parken-luebeck-56,Strandbahnhof,Lübeck,6,,,,,parken-luebeck,https://www.parken-luebeck.de/parkmoeglichkeiten.html
parken-luebeck-58,Leuchtenfeld,Lübeck,750,,,,,parken-luebeck,https://www.parken-luebeck.de/parkmoeglichkeiten.html
parken-luebeck-60,Trelleborgallee,Lübeck,61,,,,,parken-luebeck,https://www.parken-luebeck.de/parkmoeglichkeiten.html
parken-luebeck-62,Vogteistraße &#40;Straßenrand&#41;,Lübeck,40,,,,,parken-luebeck,https://www.parken-luebeck.de/parkmoeglichkeiten.html
parken-luebeck-63,Hafenbahnhof,Lübeck,50,,,,,parken-luebeck,https://www.parken-luebeck.de/parkmoeglichkeiten.html
parken-luebeck-64,Kurgartenstraße,Lübeck,34,,,,,parken-luebeck,https://www.parken-luebeck.de/parkmoeglichkeiten.html
parken-luebeck-65,Fährvorplatz,Lübeck,30,,,,,parken-luebeck,https://www.parken-luebeck.de/parkmoeglichkeiten.html
parken-luebeck-68,Priwall,Lübeck,38,,,,,parken-luebeck,https://www.parken-luebeck.de/parkmoeglichkeiten.html
parken-luebeck-69,Rose,Lübeck,12,,,,,parken-luebeck,https://www.parken-luebeck.de/parkmoeglichkeiten.html
parken-luebeck-71,Paul Brümmer Straße,Lübeck,20,,,,,parken-luebeck,https://www.parken-luebeck.de/parkmoeglichkeiten.html
parken-luebeck-75,Lastadie P5,Lübeck,299,,,,,parken-luebeck,https://www.parken-luebeck.de/parkmoeglichkeiten.html
parken-luebeck-81,MuK Elektro,Lübeck,1,,,,,parken-luebeck,https://www.parken-luebeck.de/parkmoeglichkeiten.html
parken-luebeck-82,Hüxstraße,Lübeck,325,,,,,parken-luebeck,https://www.parken-luebeck.de/parkmoeglichkeiten.html
parken-luebeck-85,Museum Natur und Umwelt Elektro,Lübeck,1,,,,,parken-luebeck,https://www.parken-luebeck.de/parkmoeglichkeiten.html
parken-luebeck-86,IHK Lübeck Elektro,Lübeck,1,,,,,parken-luebeck,https://www.parken-luebeck.de/parkmoeglichkeiten.html
parken-luebeck-88,Kanalstraße P2,Lübeck,216,,,,,parken-luebeck,https://www.parken-luebeck.de/parkmoeglichkeiten.html
parken-luebeck-89,Kanalstraße P3,Lübeck,196,,,,,parken-luebeck,https://www.parken-luebeck.de/parkmoeglichkeiten.html
parken-luebeck-90,Kanalstraße P4,Lübeck,147,,,,,parken-luebeck,https://www.parken-luebeck.de/parkmoeglichkeiten.html
parken-luebeck-91,Kanalstraße P5,Lübeck,45,,,,,parken-luebeck,https://www.parken-luebeck.de/parkmoeglichkeiten.html
parken-luebeck-95,Parkhaus St. Marien,Lübeck,400,,,,,parken-luebeck,https://www.parken-luebeck.de/parkmoeglichkeiten.html
parken-luebeck-96,Am Fischereihafen,Lübeck,404,,,,,parken-luebeck,https://www.parken-luebeck.de/parkmoeglichkeiten.html
parken-luebeck-98,Kowitzberg,Lübeck,49,,,,,parken-luebeck,https://www.parken-luebeck.de/parkmoeglichkeiten.html
parken-luebeck-99,Fischereihafen,Lübeck,49,,,,,parken-luebeck,https://www.parken-luebeck.de/parkmoeglichkeiten.html
parken-luebeck-100,Nördliche Wallhalbinsel,Lübeck,38,,,,,parken-luebeck,https://www.parken-luebeck.de/parkmoeglichkeiten.html
parken-luebeck-101,Lastadie P4,Lübeck,17,,,,,parken-luebeck,https://www.parken-luebeck.de/parkmoeglichkeiten.html
parken-luebeck-102,Leuchtenfeld,Lübeck,,,,,,parken-luebeck,https://www.parken-luebeck.de/parkmoeglichkeiten.html
parken-luebeck-107,Pferdemarkt,Lübeck,99,,,,,parken-luebeck,https://www.parken-luebeck.de/parkmoeglichkeiten.html
parken-mannheim-C1-Hauptverwaltung-MPB-Parkhaus,"C1 Hauptverwaltung MPB, Parkhaus",Mannheim,,,,,,parken-mannheim,https://www.parken-mannheim.de/
parken-mannheim-Collini-Center-Tiefgarage,"Collini-Center, Tiefgarage",Mannheim,,,,,,parken-mannheim,https://www.parken-mannheim.de/
parken-mannheim-Collini-Center-Mulde-Parkplatz,"Collini-Center Mulde, Parkplatz",Mannheim,,,,,,parken-mannheim,https://www.parken-mannheim.de/
parken-mannheim-D3-Tiefgarage,"D3, Tiefgarage",Mannheim,,,,,,parken-mannheim,https://www.parken-mannheim.de/
parken-mannheim-D5-Reiss-Museum-Tiefgarage,"D5 Reiß-Museum, Tiefgarage",Mannheim,,,,,,parken-mannheim,https://www.parken-mannheim.de/
parken-mannheim-G1-Marktplatz-Tiefgarage,"G1 Marktplatz, Tiefgarage",Mannheim,,,,,,parken-mannheim,https://www.parken-mannheim.de/
parken-mannheim-H6-Tiefgarage,"H6, Tiefgarage",Mannheim,,,,,,parken-mannheim,https://www.parken-mannheim.de/
parken-mannheim-Hauptbahnhof-P1-Tiefgarage,"Hauptbahnhof P1 , Tiefgarage",Mannheim,,,,,,parken-mannheim,https://www.parken-mannheim.de/
parken-mannheim-Hauptbahnhof-P2-Parkhaus,"Hauptbahnhof P2, Parkhaus",Mannheim,,,,,,parken-mannheim,https://www.parken-mannheim.de/
parken-mannheim-Hauptbahnhof-P3-P4-Parkhaus,"Hauptbahnhof P3/P4, Parkhaus",Mannheim,,,,,,parken-mannheim,https://www.parken-mannheim.de/
parken-mannheim-Hauptbahnhof-P5-Parkhaus,"Hauptbahnhof P5, Parkhaus",Mannheim,,,,,,parken-mannheim,https://www.parken-mannheim.de/
parken-mannheim-Klinikum-Tiefgarage,"Klinikum, Tiefgarage",Mannheim,,,,,,parken-mannheim,https://www.parken-mannheim.de/
parken-mannheim-Kunsthalle-Tiefgarage,"Kunsthalle, Tiefgarage",Mannheim,,,,,,parken-mannheim,https://www.parken-mannheim.de/
parken-mannheim-Klinikum-P3,Klinikum P3,Mannheim,,,,,,parken-mannheim,https://www.parken-mannheim.de/
parken-mannheim-M4a-Parkplatz,"M4a, Parkplatz",Mannheim,,,,,,parken-mannheim,https://www.parken-mannheim.de/
parken-mannheim-N1-N2-Stadthaus-Parkhaus,"N1/N2 Stadthaus, Parkhaus",Mannheim,,,,,,parken-mannheim,https://www.parken-mannheim.de/
parken-mannheim-N6-Komforthaus,N6 Komforthaus,Mannheim,,,,,,parken-mannheim,https://www.parken-mannheim.de/
parken-mannheim-N6-Standardhaus,N6 Standardhaus,Mannheim,,,,,,parken-mannheim,https://www.parken-mannheim.de/
parken-mannheim-Nationaltheater,Nationaltheater,Mannheim,,,,,,parken-mannheim,https://www.parken-mannheim.de/
parken-mannheim-U2-Tiefgarage,"U2, Tiefgarage",Mannheim,,,,,,parken-mannheim,https://www.parken-mannheim.de/
parken-mannheim-SAP-Arena-P1-Parkhaus,"SAP Arena P1, Parkhaus",Mannheim,,,,,,parken-mannheim,https://www.parken-mannheim.de/
parken-mannheim-SAP-Arena-P2-Parkhaus,"SAP Arena P2, Parkhaus",Mannheim,,,,,,parken-mannheim,https://www.parken-mannheim.de/
parken-mannheim-SAP-Arena-P3-Parkhaus,"SAP Arena P3, Parkhaus",Mannheim,,,,,,parken-mannheim,https://www.parken-mannheim.de/
parken-mannheim-SAP-Arena-P6-P8-Parkplatz,"SAP Arena P6-P8, Parkplatz",Mannheim,,,,,,parken-mannheim,https://www.parken-mannheim.de/
stadt-muenster-parken-Parkhaus-Theater,Parkhaus Theater,Münster,748,,,,https://www.stadt-muenster.de/tiefbauamt/parkleitsystem/parkhaeuser/detailansicht/parkhaus/1.html,stadt-muenster-parken,https://www.stadt-muenster.de/index.php?id=10910
stadt-muenster-parken-Parkplatz-Horster-Platz,Parkplatz Hörster Platz,Münster,202,,,,https://www.stadt-muenster.de/tiefbauamt/parkleitsystem/parkhaeuser/detailansicht/parkhaus/2.html,stadt-muenster-parken,https://www.stadt-muenster.de/index.php?id=10910
stadt-muenster-parken-Parkhaus-Alter-Steinweg,Parkhaus Alter Steinweg,Münster,390,,,,https://www.stadt-muenster.de/tiefbauamt/parkleitsystem/parkhaeuser/detailansicht/parkhaus/3.html,stadt-muenster-parken,https://www.stadt-muenster.de/index.php?id=10910
stadt-muenster-parken-Parkplatz-Busparkplatz,Parkplatz Busparkplatz,Münster,63,,,,https://www.stadt-muenster.de/tiefbauamt/parkleitsystem/parkhaeuser/detailansicht/parkhaus/4.html,stadt-muenster-parken,https://www.stadt-muenster.de/index.php?id=10910
stadt-muenster-parken-Parkplatz-Schlossplatz-Nord,Parkplatz Schlossplatz Nord,Münster,450,,,,https://www.stadt-muenster.de/tiefbauamt/parkleitsystem/parkhaeuser/detailansicht/parkhaus/5.html,stadt-muenster-parken,https://www.stadt-muenster.de/index.php?id=10910
stadt-muenster-parken-Parkplatz-Schlossplatz-Sud,Parkplatz Schlossplatz Süd,Münster,460,,,,https://www.stadt-muenster.de/tiefbauamt/parkleitsystem/parkhaeuser/detailansicht/parkhaus/6.html,stadt-muenster-parken,https://www.stadt-muenster.de/index.php?id=10910
stadt-muenster-parken-Parkhaus-Aegidii,Parkhaus Aegidii,Münster,750,,,,https://www.stadt-muenster.de/tiefbauamt/parkleitsystem/parkhaeuser/detailansicht/parkhaus/7.html,stadt-muenster-parken,https://www.stadt-muenster.de/index.php?id=10910
stadt-muenster-parken-Parkplatz-Georgskommende,Parkplatz Georgskommende,Münster,272,,,,https://www.stadt-muenster.de/tiefbauamt/parkleitsystem/parkhaeuser/detailansicht/parkhaus/8.html,stadt-muenster-parken,https://www.stadt-muenster.de/index.php?id=10910
stadt-muenster-parken-Parkhaus-Munster-Arkaden,Parkhaus Münster-Arkaden,Münster,150,,,,https://www.stadt-muenster.de/tiefbauamt/parkleitsystem/parkhaeuser/detailansicht/parkhaus/9.html,stadt-muenster-parken,https://www.stadt-muenster.de/index.php?id=10910
stadt-muenster-parken-Parkhaus-Karstadt,Parkhaus Karstadt,Münster,183,,,,https://www.stadt-muenster.de/tiefbauamt/parkleitsystem/parkhaeuser/detailansicht/parkhaus/10.html,stadt-muenster-parken,https://www.stadt-muenster.de/index.php?id=10910
stadt-muenster-parken-Parkhaus-Stubengasse,Parkhaus Stubengasse,Münster,318,,,,https://www.stadt-muenster.de/tiefbauamt/parkleitsystem/parkhaeuser/detailansicht/parkhaus/11.html,stadt-muenster-parken,https://www.stadt-muenster.de/index.php?id=10910
stadt-muenster-parken-Parkhaus-Bremer-Platz,Parkhaus Bremer Platz,Münster,354,,,,https://www.stadt-muenster.de/tiefbauamt/parkleitsystem/parkhaeuser/detailansicht/parkhaus/12.html,stadt-muenster-parken,https://www.stadt-muenster.de/index.php?id=10910
stadt-muenster-parken-Parkhaus-Engelenschanze,Parkhaus Engelenschanze,Münster,480,,,,https://www.stadt-muenster.de/tiefbauamt/parkleitsystem/parkhaeuser/detailansicht/parkhaus/13.html,stadt-muenster-parken,https://www.stadt-muenster.de/index.php?id=10910
stadt-muenster-parken-Parkhaus-Bahnhofstrasse,Parkhaus Bahnhofstraße,Münster,311,,,,https://www.stadt-muenster.de/tiefbauamt/parkleitsystem/parkhaeuser/detailansicht/parkhaus/14.html,stadt-muenster-parken,https://www.stadt-muenster.de/index.php?id=10910
stadt-muenster-parken-Parkhaus-Cineplex,Parkhaus Cineplex,Münster,590,,,,https://www.stadt-muenster.de/tiefbauamt/parkleitsystem/parkhaeuser/detailansicht/parkhaus/15.html,stadt-muenster-parken,https://www.stadt-muenster.de/index.php?id=10910
stadt-muenster-parken-Parkhaus-PH-Stadthaus-3,Parkhaus PH Stadthaus 3,Münster,372,,,,https://www.stadt-muenster.de/tiefbauamt/parkleitsystem/parkhaeuser/detailansicht/parkhaus/16.html,stadt-muenster-parken,https://www.stadt-muenster.de/index.php?id=10910
tiefbauamt-nuernberg-parken-Parkhausname,Parkhausname,Nürnberg,,,,,,tiefbauamt-nuernberg-parken,http://www.tiefbauamt.nuernberg.de/site/parken/parkhausbelegung/parkhaus_belegung.html
tiefbauamt-nuernberg-parken-Hauptmarkt,Hauptmarkt,Nürnberg,525,,,,,tiefbauamt-nuernberg-parken,http://www.tiefbauamt.nuernberg.de/site/parken/parkhausbelegung/parkhaus_belegung.html
tiefbauamt-nuernberg-parken-Hans-Sachs-Platz,Hans-Sachs-Platz,Nürnberg,65,,,,,tiefbauamt-nuernberg-parken,http://www.tiefbauamt.nuernberg.de/site/parken/parkhausbelegung/parkhaus_belegung.html
tiefbauamt-nuernberg-parken-Sebalder-Hofe,Sebalder Höfe,Nürnberg,250,,,,,tiefbauamt-nuernberg-parken,http://www.tiefbauamt.nuernberg.de/site/parken/parkhausbelegung/parkhaus_belegung.html
tiefbauamt-nuernberg-parken-Parkhaus-Karstadt,Parkhaus Karstadt,Nürnberg,365,,,,,tiefbauamt-nuernberg-parken,http://www.tiefbauamt.nuernberg.de/site/parken/parkhausbelegung/parkhaus_belegung.html
tiefbauamt-nuernberg-parken-Katharinenhof,Katharinenhof,Nürnberg,370,,,,,tiefbauamt-nuernberg-parken,http://www.tiefbauamt.nuernberg.de/site/parken/parkhausbelegung/parkhaus_belegung.html
tiefbauamt-nuernberg-parken-Findelgasse,Findelgasse,Nürnberg,146,,,,,tiefbauamt-nuernberg-parken,http://www.tiefbauamt.nuernberg.de/site/parken/parkhausbelegung/parkhaus_belegung.html
tiefbauamt-nuernberg-parken-PH-Nurnberger-Akademie,PH Nürnberger Akademie,Nürnberg,301,,,,,tiefbauamt-nuernberg-parken,http://www.tiefbauamt.nuernberg.de/site/parken/parkhausbelegung/parkhaus_belegung.html
tiefbauamt-nuernberg-parken-Adlerstrasse,Adlerstraße,Nürnberg,260,,,,,tiefbauamt-nuernberg-parken,http://www.tiefbauamt.nuernberg.de/site/parken/parkhausbelegung/parkhaus_belegung.html
tiefbauamt-nuernberg-parken-Parkhaus-Wohrl,Parkhaus Wöhrl,Nürnberg,441,,,,,tiefbauamt-nuernberg-parken,http://www.tiefbauamt.nuernberg.de/site/parken/parkhausbelegung/parkhaus_belegung.html
tiefbauamt-nuernberg-parken-Jakobsmarkt,Jakobsmarkt,Nürnberg,452,,,,,tiefbauamt-nuernberg-parken,http://www.tiefbauamt.nuernberg.de/site/parken/parkhausbelegung/parkhaus_belegung.html
tiefbauamt-nuernberg-parken-Parkhaus-Maximum,Parkhaus Maximum,Nürnberg,100,,,,,tiefbauamt-nuernberg-parken,http://www.tiefbauamt.nuernberg.de/site/parken/parkhausbelegung/parkhaus_belegung.html
tiefbauamt-nuernberg-parken-Galeria-Kaufhof,Galeria Kaufhof,Nürnberg,220,,,,,tiefbauamt-nuernberg-parken,http://www.tiefbauamt.nuernberg.de/site/parken/parkhausbelegung/parkhaus_belegung.html
tiefbauamt-nuernberg-parken-Parkhaus-City-Point,Parkhaus City-Point,Nürnberg,,,,,,tiefbauamt-nuernberg-parken,http://www.tiefbauamt.nuernberg.de/site/parken/parkhausbelegung/parkhaus_belegung.html
tiefbauamt-nuernberg-parken-Sterntor,Sterntor,Nürnberg,476,,,,,tiefbauamt-nuernberg-parken,http://www.tiefbauamt.nuernberg.de/site/parken/parkhausbelegung/parkhaus_belegung.html
tiefbauamt-nuernberg-parken-Erler-Klinik,Erler-Klinik,Nürnberg,200,,,,,tiefbauamt-nuernberg-parken,http://www.tiefbauamt.nuernberg.de/site/parken/parkhausbelegung/parkhaus_belegung.html
tiefbauamt-nuernberg-parken-Hauptbahnhof,Hauptbahnhof,Nürnberg,486,,,,,tiefbauamt-nuernberg-parken,http://www.tiefbauamt.nuernberg.de/site/parken/parkhausbelegung/parkhaus_belegung.html
tiefbauamt-nuernberg-parken-Theater,Theater,Nürnberg,180,,,,,tiefbauamt-nuernberg-parken,http://www.tiefbauamt.nuernberg.de/site/parken/parkhausbelegung/parkhaus_belegung.html
tiefbauamt-nuernberg-parken-ADCOM-Center,ADCOM-Center,Nürnberg,92,,,,,tiefbauamt-nuernberg-parken,http://www.tiefbauamt.nuernberg.de/site/parken/parkhausbelegung/parkhaus_belegung.html
tiefbauamt-nuernberg-parken-City-Park-Center,City-Park-Center,Nürnberg,400,,,,,tiefbauamt-nuernberg-parken,http://www.tiefbauamt.nuernberg.de/site/parken/parkhausbelegung/parkhaus_belegung.html
oldenburg-service-parken-Waffenplatz,Waffenplatz,Oldenburg,510,,,,,oldenburg-service-parken,https://oldenburg-service.de/pls/#/hauspark
oldenburg-service-parken-City,City,Oldenburg,420,,,,,oldenburg-service-parken,https://oldenburg-service.de/pls/#/hauspark
oldenburg-service-parken-Galeria-Kaufhof,Galeria Kaufhof,Oldenburg,272,,,,,oldenburg-service-parken,https://oldenburg-service.de/pls/#/hauspark
oldenburg-service-parken-Pferdemarkt,Pferdemarkt,Oldenburg,401,,,,,oldenburg-service-parken,https://oldenburg-service.de/pls/#/hauspark
oldenburg-service-parken-CCO-Parkdeck-1,CCO Parkdeck 1,Oldenburg,210,,,,,oldenburg-service-parken,https://oldenburg-service.de/pls/#/hauspark
oldenburg-service-parken-CCO-Parkdeck-2,CCO Parkdeck 2,Oldenburg,121,,,,,oldenburg-service-parken,https://oldenburg-service.de/pls/#/hauspark
oldenburg-service-parken-Hbf-ZOB,Hbf/ZOB,Oldenburg,183,,,,,oldenburg-service-parken,https://oldenburg-service.de/pls/#/hauspark
oldenburg-service-parken-Theaterwall,Theaterwall,Oldenburg,80,,,,,oldenburg-service-parken,https://oldenburg-service.de/pls/#/hauspark
oldenburg-service-parken-Ratsherren,Ratsherren,Oldenburg,16,,,,,oldenburg-service-parken,https://oldenburg-service.de/pls/#/hauspark
oldenburg-service-parken-Altes-Gymnasium,Altes Gymnasium,Oldenburg,50,,,,,oldenburg-service-parken,https://oldenburg-service.de/pls/#/hauspark
oldenburg-service-parken-Theatergarage,Theatergarage,Oldenburg,105,,,,,oldenburg-service-parken,https://oldenburg-service.de/pls/#/hauspark
oldenburg-service-parken-Heiligengeist-Hoefe,Heiligengeist-Hoefe,Oldenburg,275,,,,,oldenburg-service-parken,https://oldenburg-service.de/pls/#/hauspark
oldenburg-service-parken-Schlosshoefe,Schlosshoefe,Oldenburg,430,,,,,oldenburg-service-parken,https://oldenburg-service.de/pls/#/hauspark
oldenburg-service-parken-Cinemaxx,Cinemaxx,Oldenburg,367,,,,,oldenburg-service-parken,https://oldenburg-service.de/pls/#/hauspark
parken-osnabrueck-11,11,Osnabrück,665,,,,,parken-osnabrueck,https://www.parken-osnabrueck.de/
parken-osnabrueck-13,13,Osnabrück,147,,,,,parken-osnabrueck,https://www.parken-osnabrueck.de/
parken-osnabrueck-16,16,Osnabrück,70,,,,,parken-osnabrueck,https://www.parken-osnabrueck.de/
parken-osnabrueck-17,17,Osnabrück,136,,,,,parken-osnabrueck,https://www.parken-osnabrueck.de/
parken-osnabrueck-18,18,Osnabrück,120,,,,,parken-osnabrueck,https://www.parken-osnabrueck.de/
parken-osnabrueck-19,19,Osnabrück,156,,,,,parken-osnabrueck,https://www.parken-osnabrueck.de/
parken-osnabrueck-21,21,Osnabrück,119,,,,,parken-osnabrueck,https://www.parken-osnabrueck.de/
parken-osnabrueck-22,22,Osnabrück,556,,,,,parken-osnabrueck,https://www.parken-osnabrueck.de/
parken-osnabrueck-23,23,Osnabrück,587,,,,,parken-osnabrueck,https://www.parken-osnabrueck.de/
parken-osnabrueck-24,24,Osnabrück,477,,,,,parken-osnabrueck,https://www.parken-osnabrueck.de/
parken-osnabrueck-25,25,Osnabrück,43,,,,,parken-osnabrueck,https://www.parken-osnabrueck.de/
parken-osnabrueck-26,26,Osnabrück,48,,,,,parken-osnabrueck,https://www.parken-osnabrueck.de/
parken-osnabrueck-27,27,Osnabrück,425,,,,,parken-osnabrueck,https://www.parken-osnabrueck.de/
parken-osnabrueck-28,28,Osnabrück,294,,,,,parken-osnabrueck,https://www.parken-osnabrueck.de/
parken-osnabrueck-29,29,Osnabrück,52,,,,,parken-osnabrueck,https://www.parken-osnabrueck.de/
parken-osnabrueck-30,30,Osnabrück,260,,,,,parken-osnabrueck,https://www.parken-osnabrueck.de/
parken-osnabrueck-31,31,Osnabrück,21,,,,,parken-osnabrueck,https://www.parken-osnabrueck.de/
parken-osnabrueck-32,32,Osnabrück,93,,,,,parken-osnabrueck,https://www.parken-osnabrueck.de/
parken-osnabrueck-33,33,Osnabrück,21,,,,,parken-osnabrueck,https://www.parken-osnabrueck.de/
parken-osnabrueck-34,34,Osnabrück,170,,,,,parken-osnabrueck,https://www.parken-osnabrueck.de/
parken-osnabrueck-35,35,Osnabrück,198,,,,,parken-osnabrueck,https://www.parken-osnabrueck.de/
paderborn-parken-P1-Konigsplatz,P1 Königsplatz,Paderborn,640,,,,,paderborn-parken,https://www4.paderborn.de/aspparkinfo/default.aspx
paderborn-parken-P2-Florianstrasse,P2 Florianstraße,Paderborn,290,,,,,paderborn-parken,https://www4.paderborn.de/aspparkinfo/default.aspx
paderborn-parken-P3-Neuhauser-Tor,P3 Neuhäuser Tor,Paderborn,540,,,,,paderborn-parken,https://www4.paderborn.de/aspparkinfo/default.aspx
paderborn-parken-P4-Paderhalle-Maspernplatz,P4 Paderhalle / Maspernplatz,Paderborn,670,,,,,paderborn-parken,https://www4.paderborn.de/aspparkinfo/default.aspx
paderborn-parken-P5-Rolandsweg,P5 Rolandsweg,Paderborn,540,,,,,paderborn-parken,https://www4.paderborn.de/aspparkinfo/default.aspx
paderborn-parken-P6-Libori-Galerie,P6 Libori-Galerie,Paderborn,500,,,,,paderborn-parken,https://www4.paderborn.de/aspparkinfo/default.aspx
paderborn-parken-P7-Le-Mans-Wall-Liboriberg,P7 Le-Mans-Wall / Liboriberg,Paderborn,290,,,,,paderborn-parken,https://www4.paderborn.de/aspparkinfo/default.aspx
paderborn-parken-P8-Volksbank-Theater,P8 Volksbank / Theater,Paderborn,170,,,,,paderborn-parken,https://www4.paderborn.de/aspparkinfo/default.aspx
paderborn-parken-P9-Domplatz,P9 Domplatz,Paderborn,100,,,,,paderborn-parken,https://www4.paderborn.de/aspparkinfo/default.aspx
paderborn-parken-P10-Westernmauer,P10 Westernmauer,Paderborn,140,,,,,paderborn-parken,https://www4.paderborn.de/aspparkinfo/default.aspx
paderborn-parken-P11-Am-Westerntor,P11 Am Westerntor,Paderborn,40,,,,,paderborn-parken,https://www4.paderborn.de/aspparkinfo/default.aspx
paderborn-parken-P12-Rathenaustrasse,P12 Rathenaustraße,Paderborn,147,,,,,paderborn-parken,https://www4.paderborn.de/aspparkinfo/default.aspx
paderborn-parken-P13-Hauptbahnhof,P13 Hauptbahnhof,Paderborn,89,,,,,paderborn-parken,https://www4.paderborn.de/aspparkinfo/default.aspx
regensburg-parken-Parkhaus-Dachauplatz,Parkhaus Dachauplatz,Regensburg,,,,,,regensburg-parken,https://www.einkaufen-regensburg.de/service/parken-amp-anfahrt.html
regensburg-parken-Parkhaus-St-Peters-Weg,Parkhaus St.-Peters-Weg,Regensburg,,,,,,regensburg-parken,https://www.einkaufen-regensburg.de/service/parken-amp-anfahrt.html
regensburg-parken-Parkhaus-Regensburg-Arcaden,Parkhaus Regensburg Arcaden,Regensburg,,,,,,regensburg-parken,https://www.einkaufen-regensburg.de/service/parken-amp-anfahrt.html
regensburg-parken-Tiefgarage-Arnulfsplatz,Tiefgarage Arnulfsplatz,Regensburg,,,,,,regensburg-parken,https://www.einkaufen-regensburg.de/service/parken-amp-anfahrt.html
regensburg-parken-Tiefgarage-am-Theater-Bismarckplatz,Tiefgarage am Theater/Bismarckplatz,Regensburg,,,,,,regensburg-parken,https://www.einkaufen-regensburg.de/service/parken-amp-anfahrt.html
regensburg-parken-Tiefgarage-Hauptbahnhof-Castra-Regina-Center,Tiefgarage Hauptbahnhof/Castra Regina Center,Regensburg,,,,,,regensburg-parken,https://www.einkaufen-regensburg.de/service/parken-amp-anfahrt.html
regensburg-parken-Park-Ride-Parkplatz-West,Park & Ride-Parkplatz West,Regensburg,,,,,,regensburg-parken,https://www.einkaufen-regensburg.de/service/parken-amp-anfahrt.html
regensburg-parken-Parkplatz-Dultplatz,Parkplatz Dultplatz,Regensburg,,,,,,regensburg-parken,https://www.einkaufen-regensburg.de/service/parken-amp-anfahrt.html
regensburg-parken-Park-Ride-Parkplatz-Unterer-Wohrd,Park & Ride - Parkplatz Unterer Wöhrd,Regensburg,,,,,,regensburg-parken,https://www.einkaufen-regensburg.de/service/parken-amp-anfahrt.html
reutlingen-parken-Stadthalle,Stadthalle,Reutlingen,,,,,,reutlingen-parken,"https://www.reutlingen.de/de/Rathaus-Service/Noch-mehr-Service/Anreise,-Parkplaetze-und-Fahrplaene/Parken-in-Reutlingen"
reutlingen-parken-Konrad-Adenauer-Strasse-Eberhardstrasse,Konrad-Adenauer-Straße/ Eberhardstraße,Reutlingen,,,,,,reutlingen-parken,"https://www.reutlingen.de/de/Rathaus-Service/Noch-mehr-Service/Anreise,-Parkplaetze-und-Fahrplaene/Parken-in-Reutlingen"
reutlingen-parken-Parkhaus-Pomologie,Parkhaus Pomologie,Reutlingen,,,,,,reutlingen-parken,"https://www.reutlingen.de/de/Rathaus-Service/Noch-mehr-Service/Anreise,-Parkplaetze-und-Fahrplaene/Parken-in-Reutlingen"
reutlingen-parken-Nordstern,Nordstern,Reutlingen,,,,,,reutlingen-parken,"https://www.reutlingen.de/de/Rathaus-Service/Noch-mehr-Service/Anreise,-Parkplaetze-und-Fahrplaene/Parken-in-Reutlingen"
reutlingen-parken-Unter-den-Linden,Unter den Linden,Reutlingen,,,,,,reutlingen-parken,"https://www.reutlingen.de/de/Rathaus-Service/Noch-mehr-Service/Anreise,-Parkplaetze-und-Fahrplaene/Parken-in-Reutlingen"
reutlingen-parken-Am-Bahnhof,Am Bahnhof,Reutlingen,,,,,,reutlingen-parken,"https://www.reutlingen.de/de/Rathaus-Service/Noch-mehr-Service/Anreise,-Parkplaetze-und-Fahrplaene/Parken-in-Reutlingen"
reutlingen-parken-Kronprinzenbau,Kronprinzenbau,Reutlingen,,,,,,reutlingen-parken,"https://www.reutlingen.de/de/Rathaus-Service/Noch-mehr-Service/Anreise,-Parkplaetze-und-Fahrplaene/Parken-in-Reutlingen"
reutlingen-parken-Rathaus-Tubinger-Tor,Rathaus / Tübinger Tor,Reutlingen,,,,,,reutlingen-parken,"https://www.reutlingen.de/de/Rathaus-Service/Noch-mehr-Service/Anreise,-Parkplaetze-und-Fahrplaene/Parken-in-Reutlingen"
reutlingen-parken-Galeria-Kaufhof,Galeria Kaufhof,Reutlingen,,,,,,reutlingen-parken,"https://www.reutlingen.de/de/Rathaus-Service/Noch-mehr-Service/Anreise,-Parkplaetze-und-Fahrplaene/Parken-in-Reutlingen"
reutlingen-parken-Bahnhof,Bahnhof,Reutlingen,,,,,,reutlingen-parken,"https://www.reutlingen.de/de/Rathaus-Service/Noch-mehr-Service/Anreise,-Parkplaetze-und-Fahrplaene/Parken-in-Reutlingen"
reutlingen-parken-Lederstrasse,Lederstraße,Reutlingen,,,,,,reutlingen-parken,"https://www.reutlingen.de/de/Rathaus-Service/Noch-mehr-Service/Anreise,-Parkplaetze-und-Fahrplaene/Parken-in-Reutlingen"
reutlingen-parken-Gartentor-C-A-Mode,Gartentor (C&A Mode),Reutlingen,,,,,,reutlingen-parken,"https://www.reutlingen.de/de/Rathaus-Service/Noch-mehr-Service/Anreise,-Parkplaetze-und-Fahrplaene/Parken-in-Reutlingen"
reutlingen-parken-Stadtmitte,Stadtmitte,Reutlingen,,,,,,reutlingen-parken,"https://www.reutlingen.de/de/Rathaus-Service/Noch-mehr-Service/Anreise,-Parkplaetze-und-Fahrplaene/Parken-in-Reutlingen"
reutlingen-parken-Volksbank,Volksbank,Reutlingen,,,,,,reutlingen-parken,"https://www.reutlingen.de/de/Rathaus-Service/Noch-mehr-Service/Anreise,-Parkplaetze-und-Fahrplaene/Parken-in-Reutlingen"
reutlingen-parken-Kaiserpassage,Kaiserpassage,Reutlingen,,,,,,reutlingen-parken,"https://www.reutlingen.de/de/Rathaus-Service/Noch-mehr-Service/Anreise,-Parkplaetze-und-Fahrplaene/Parken-in-Reutlingen"
reutlingen-parken-Gartenviertel,Gartenviertel,Reutlingen,,,,,,reutlingen-parken,"https://www.reutlingen.de/de/Rathaus-Service/Noch-mehr-Service/Anreise,-Parkplaetze-und-Fahrplaene/Parken-in-Reutlingen"
reutlingen-parken-Obere-Wassere,Obere Wässere,Reutlingen,,,,,,reutlingen-parken,"https://www.reutlingen.de/de/Rathaus-Service/Noch-mehr-Service/Anreise,-Parkplaetze-und-Fahrplaene/Parken-in-Reutlingen"
reutlingen-parken-Klinikum-I,Klinikum I,Reutlingen,,,,,,reutlingen-parken,"https://www.reutlingen.de/de/Rathaus-Service/Noch-mehr-Service/Anreise,-Parkplaetze-und-Fahrplaene/Parken-in-Reutlingen"
reutlingen-parken-Klinikum-II,Klinikum II,Reutlingen,,,,,,reutlingen-parken,"https://www.reutlingen.de/de/Rathaus-Service/Noch-mehr-Service/Anreise,-Parkplaetze-und-Fahrplaene/Parken-in-Reutlingen"
reutlingen-parken-Echaz-Zentrum,Echaz-Zentrum,Reutlingen,,,,,,reutlingen-parken,"https://www.reutlingen.de/de/Rathaus-Service/Noch-mehr-Service/Anreise,-Parkplaetze-und-Fahrplaene/Parken-in-Reutlingen"
reutlingen-parken-Parkgarage-Leonhardsplatz,Parkgarage Leonhardsplatz,Reutlingen,,,,,,reutlingen-parken,"https://www.reutlingen.de/de/Rathaus-Service/Noch-mehr-Service/Anreise,-Parkplaetze-und-Fahrplaene/Parken-in-Reutlingen"
mobil-potsdam-parken-Bahnhofspassagen-1,Bahnhofspassagen 1,Potsdam,,,,,,mobil-potsdam-parken,https://www.mobil-potsdam.de/de/parken/parken-in-potsdam/
mobil-potsdam-parken-Bahnhofspassagen-2,Bahnhofspassagen 2,Potsdam,,,,,,mobil-potsdam-parken,https://www.mobil-potsdam.de/de/parken/parken-in-potsdam/
mobil-potsdam-parken-Hollandisches-Viertel-Klinikum,Holländisches Viertel / Klinikum,Potsdam,,,,,,mobil-potsdam-parken,https://www.mobil-potsdam.de/de/parken/parken-in-potsdam/
mobil-potsdam-parken-Karstadt-Zentrum,Karstadt / Zentrum,Potsdam,,,,,,mobil-potsdam-parken,https://www.mobil-potsdam.de/de/parken/parken-in-potsdam/
mobil-potsdam-parken-Luisenplatz,Luisenplatz,Potsdam,,,,,,mobil-potsdam-parken,https://www.mobil-potsdam.de/de/parken/parken-in-potsdam/
mobil-potsdam-parken-Markt-Center,Markt Center,Potsdam,,,,,,mobil-potsdam-parken,https://www.mobil-potsdam.de/de/parken/parken-in-potsdam/
mobil-potsdam-parken-Wilhelmgalerie,Wilhelmgalerie,Potsdam,,,,,,mobil-potsdam-parken,https://www.mobil-potsdam.de/de/parken/parken-in-potsdam/
mobil-potsdam-parken-Am-Kanal,Am Kanal,Potsdam,,,,,,mobil-potsdam-parken,https://www.mobil-potsdam.de/de/parken/parken-in-potsdam/
mobil-potsdam-parken-Industrie-und-Handelskammer,Industrie- und Handelskammer,Potsdam,,,,,,mobil-potsdam-parken,https://www.mobil-potsdam.de/de/parken/parken-in-potsdam/
mobil-potsdam-parken-Kutschstall-Nikolaisaal-Filmmuseum,Kutschstall / Nikolaisaal (Filmmuseum),Potsdam,,,,,,mobil-potsdam-parken,https://www.mobil-potsdam.de/de/parken/parken-in-potsdam/
mobil-potsdam-parken-Lustgarten,Lustgarten,Potsdam,,,,,,mobil-potsdam-parken,https://www.mobil-potsdam.de/de/parken/parken-in-potsdam/
mobil-potsdam-parken-Schiffbauergasse-Hans-Otto-Theater,Schiffbauergasse / Hans-Otto-Theater,Potsdam,,,,,,mobil-potsdam-parken,https://www.mobil-potsdam.de/de/parken/parken-in-potsdam/
mobil-potsdam-parken-Werner-Alfred-Bad,Werner- Alfred- Bad,Potsdam,,,,,,mobil-potsdam-parken,https://www.mobil-potsdam.de/de/parken/parken-in-potsdam/
mobil-potsdam-parken-Krongut-Bornstedt,Krongut Bornstedt,Potsdam,,,,,,mobil-potsdam-parken,https://www.mobil-potsdam.de/de/parken/parken-in-potsdam/
mobil-potsdam-parken-Park-Sanssouci-P1-Historische-Muhle,Park Sanssouci P1 Historische Mühle,Potsdam,,,,,,mobil-potsdam-parken,https://www.mobil-potsdam.de/de/parken/parken-in-potsdam/
mobil-potsdam-parken-Park-Sanssouci-P2-Voltaireweg,Park Sanssouci P2 Voltaireweg,Potsdam,,,,,,mobil-potsdam-parken,https://www.mobil-potsdam.de/de/parken/parken-in-potsdam/
mobil-potsdam-parken-Park-Sanssouci-P3-Am-Neuen-Palais,Park Sanssouci P3 Am Neuen Palais,Potsdam,,,,,,mobil-potsdam-parken,https://www.mobil-potsdam.de/de/parken/parken-in-potsdam/
mobil-potsdam-parken-P-R-Bahnhof-Griebnitzsee,P+R Bahnhof Griebnitzsee,Potsdam,,,,,,mobil-potsdam-parken,https://www.mobil-potsdam.de/de/parken/parken-in-potsdam/
mobil-potsdam-parken-P-R-Johannes-Kepler-Platz,P+R Johannes-Kepler-Platz,Potsdam,,,,,,mobil-potsdam-parken,https://www.mobil-potsdam.de/de/parken/parken-in-potsdam/
mobil-potsdam-parken-Parkplatz-Schloss-und-Park-Babelsberg,Parkplatz Schloss und Park Babelsberg,Potsdam,,,,,,mobil-potsdam-parken,https://www.mobil-potsdam.de/de/parken/parken-in-potsdam/
mobil-potsdam-parken-Weberpark,Weberpark,Potsdam,,,,,,mobil-potsdam-parken,https://www.mobil-potsdam.de/de/parken/parken-in-potsdam/
mobil-potsdam-parken-P-R-Bahnhof-Pirschheide,P+R Bahnhof Pirschheide,Potsdam,,,,,,mobil-potsdam-parken,https://www.mobil-potsdam.de/de/parken/parken-in-potsdam/
mobil-potsdam-parken-Sportpark-Luftschiffhafen,Sportpark Luftschiffhafen,Potsdam,,,,,,mobil-potsdam-parken,https://www.mobil-potsdam.de/de/parken/parken-in-potsdam/
mobil-potsdam-parken-Neuer-Garten-Cecilienhof,Neuer Garten/Cecilienhof,Potsdam,,,,,,mobil-potsdam-parken,https://www.mobil-potsdam.de/de/parken/parken-in-potsdam/
mobil-potsdam-parken-BUGA-Park-Volkspark,BUGA-Park (Volkspark),Potsdam,,,,,,mobil-potsdam-parken,https://www.mobil-potsdam.de/de/parken/parken-in-potsdam/
mobil-potsdam-parken-Campus-Jungfernsee,Campus Jungfernsee,Potsdam,,,,,,mobil-potsdam-parken,https://www.mobil-potsdam.de/de/parken/parken-in-potsdam/
mobil-potsdam-parken-P-R-Rehbrucke,P+R Rehbrücke,Potsdam,,,,,,mobil-potsdam-parken,https://www.mobil-potsdam.de/de/parken/parken-in-potsdam/
swt-trier-parken-Vieh,Vieh,Trier,255,,,,,swt-trier-parken,https://www.swt.de/
swt-trier-parken-Rat1,Rat1,Trier,146,,,,,swt-trier-parken,https://www.swt.de/
swt-trier-parken-Rat2,Rat2,Trier,156,,,,,swt-trier-parken,https://www.swt.de/
swt-trier-parken-Port,Port,Trier,250,,,,,swt-trier-parken,https://www.swt.de/
swt-trier-parken-Kauf,Kauf,Trier,482,,,,,swt-trier-parken,https://www.swt.de/
swt-trier-parken-Hauptm,Hauptm,Trier,280,,,,,swt-trier-parken,https://www.swt.de/
swt-trier-parken-City,City,Trier,516,,,,,swt-trier-parken,https://www.swt.de/
swt-trier-parken-Euro,Euro,Trier,,,,,,swt-trier-parken,https://www.swt.de/
swt-trier-parken-Kons,Kons,Trier,80,,,,,swt-trier-parken,https://www.swt.de/
swt-trier-parken-Basi,Basi,Trier,59,,,,,swt-trier-parken,https://www.swt.de/
swt-trier-parken-Osta,Osta,Trier,653,,,,,swt-trier-parken,https://www.swt.de/
swt-trier-parken-Plaz,Plaz,Trier,108,,,,,swt-trier-parken,https://www.swt.de/
parken-in-ulm-Am-Rathaus,Am Rathaus,Ulm,558,,,,,parken-in-ulm,https://www.parken-in-ulm.de/
parken-in-ulm-Deutschhaus,Deutschhaus,Ulm,594,,,,,parken-in-ulm,https://www.parken-in-ulm.de/
parken-in-ulm-Fischerviertel,Fischerviertel,Ulm,395,,,,,parken-in-ulm,https://www.parken-in-ulm.de/
parken-in-ulm-Salzstadel,Salzstadel,Ulm,530,,,,,parken-in-ulm,https://www.parken-in-ulm.de/
parken-in-ulm-Frauenstrasse,Frauenstraße,Ulm,770,,,,,parken-in-ulm,https://www.parken-in-ulm.de/
parken-in-ulm-Congress-Centrum-Nord-Basteicenter,Congress Centrum Nord / Basteicenter,Ulm,400,,,,,parken-in-ulm,https://www.parken-in-ulm.de/
parken-in-ulm-Congress-Centrum-Sud-Maritim-Hotel,Congress Centrum Süd / Maritim Hotel,Ulm,235,,,,,parken-in-ulm,https://www.parken-in-ulm.de/
parken-in-ulm-Kornhaus,Kornhaus,Ulm,135,,,,,parken-in-ulm,https://www.parken-in-ulm.de/
parken-in-ulm-Theater,Theater,Ulm,83,,,,,parken-in-ulm,https://www.parken-in-ulm.de/
wiesbaden-parken-City-I,City I,Wiesbaden,125,,,,,wiesbaden-parken,https://www.wiesbaden.de/leben-in-wiesbaden/verkehr/verkehrsinfos/parken.php
wiesbaden-parken-City-II,City II,Wiesbaden,240,,,,,wiesbaden-parken,https://www.wiesbaden.de/leben-in-wiesbaden/verkehr/verkehrsinfos/parken.php
wiesbaden-parken-Coulinstrasse,Coulinstrasse,Wiesbaden,343,,,,,wiesbaden-parken,https://www.wiesbaden.de/leben-in-wiesbaden/verkehr/verkehrsinfos/parken.php
wiesbaden-parken-Galeria-Kaufhof,Galeria Kaufhof,Wiesbaden,238,,,,,wiesbaden-parken,https://www.wiesbaden.de/leben-in-wiesbaden/verkehr/verkehrsinfos/parken.php
wiesbaden-parken-Karstadt,Karstadt,Wiesbaden,355,,,,,wiesbaden-parken,https://www.wiesbaden.de/leben-in-wiesbaden/verkehr/verkehrsinfos/parken.php
wiesbaden-parken-Kurhaus-Casino,Kurhaus/Casino,Wiesbaden,416,,,,,wiesbaden-parken,https://www.wiesbaden.de/leben-in-wiesbaden/verkehr/verkehrsinfos/parken.php
wiesbaden-parken-Luisenforum,Luisenforum,Wiesbaden,800,,,,,wiesbaden-parken,https://www.wiesbaden.de/leben-in-wiesbaden/verkehr/verkehrsinfos/parken.php
wiesbaden-parken-Luisenplatz,Luisenplatz,Wiesbaden,292,,,,,wiesbaden-parken,https://www.wiesbaden.de/leben-in-wiesbaden/verkehr/verkehrsinfos/parken.php
wiesbaden-parken-Markt,Markt,Wiesbaden,540,,,,,wiesbaden-parken,https://www.wiesbaden.de/leben-in-wiesbaden/verkehr/verkehrsinfos/parken.php
wiesbaden-parken-Mauritius-Parkhaus,Mauritius-Parkhaus,Wiesbaden,563,,,,,wiesbaden-parken,https://www.wiesbaden.de/leben-in-wiesbaden/verkehr/verkehrsinfos/parken.php
wiesbaden-parken-PH-Liliencarree,PH Liliencarree,Wiesbaden,150,,,,,wiesbaden-parken,https://www.wiesbaden.de/leben-in-wiesbaden/verkehr/verkehrsinfos/parken.php
wiesbaden-parken-RheinMain-CongressCenter-RMCC,RheinMain CongressCenter (RMCC),Wiesbaden,700,,,,,wiesbaden-parken,https://www.wiesbaden.de/leben-in-wiesbaden/verkehr/verkehrsinfos/parken.php
wiesbaden-parken-TG-Liliencarree,TG Liliencarree,Wiesbaden,530,,,,,wiesbaden-parken,https://www.wiesbaden.de/leben-in-wiesbaden/verkehr/verkehrsinfos/parken.php
wiesbaden-parken-Theater,Theater,Wiesbaden,320,,,,,wiesbaden-parken,https://www.wiesbaden.de/leben-in-wiesbaden/verkehr/verkehrsinfos/parken.php

